[
    {
        "id": 6,
        "address": "6728 Hansons Junction",
        "pin_code": "0",
        "lat": 43.1283145,
        "long": 5.9294606,
        "street_name": "Susan"
    },
    {
        "id": 89,
        "address": "99215 Nelson Plaza",
        "pin_code": "0",
        "lat": 25.566821,
        "long": -103.4295033,
        "street_name": "Meadow Ridge"
    },
    {
        "id": 121,
        "address": "63 Orin Road",
        "pin_code": "0",
        "lat": 40.4583824,
        "long": -8.8018715,
        "street_name": "Comanche"
    },
    {
        "id": 152,
        "address": "50554 Vahlen Park",
        "pin_code": "0",
        "lat": 27.882587,
        "long": 114.870554,
        "street_name": "Macpherson"
    },
    {
        "id": 316,
        "address": "364 Dakota Plaza",
        "pin_code": "0",
        "lat": 55.7479383,
        "long": 37.7066623,
        "street_name": "Holmberg"
    },
    {
        "id": 343,
        "address": "22 Kinsman Hill",
        "pin_code": "0",
        "lat": -8.6742387,
        "long": 115.1647919,
        "street_name": "Sloan"
    },
    {
        "id": 360,
        "address": "38 Novick Way",
        "pin_code": "0",
        "lat": -8.6417702,
        "long": 126.3795987,
        "street_name": "Moland"
    },
    {
        "id": 366,
        "address": "77673 Stuart Avenue",
        "pin_code": "0",
        "lat": 7.871544,
        "long": 122.550568,
        "street_name": "Fair Oaks"
    },
    {
        "id": 415,
        "address": "6184 Pleasure Junction",
        "pin_code": "0",
        "lat": -9.5179699,
        "long": 119.0983524,
        "street_name": "Hagan"
    },
    {
        "id": 442,
        "address": "30974 Anthes Drive",
        "pin_code": "0",
        "lat": 27.392669,
        "long": 87.2120599,
        "street_name": "Lighthouse Bay"
    },
    {
        "id": 457,
        "address": "9527 Dwight Crossing",
        "pin_code": "0",
        "lat": 26.422277,
        "long": 112.859759,
        "street_name": "Surrey"
    },
    {
        "id": 487,
        "address": "06688 Barby Court",
        "pin_code": "0",
        "lat": 41.805699,
        "long": 123.431472,
        "street_name": "Green"
    },
    {
        "id": 583,
        "address": "3 Heath Way",
        "pin_code": "0",
        "lat": 5.3847763,
        "long": 95.9602371,
        "street_name": "Briar Crest"
    },
    {
        "id": 740,
        "address": "12364 Weeping Birch Avenue",
        "pin_code": "0",
        "lat": 28.953503,
        "long": 116.822083,
        "street_name": "Twin Pines"
    },
    {
        "id": 816,
        "address": "8274 Goodland Junction",
        "pin_code": "0",
        "lat": 45.3639886,
        "long": 5.5949365,
        "street_name": "Twin Pines"
    },
    {
        "id": 821,
        "address": "33724 Dennis Parkway",
        "pin_code": "0",
        "lat": 36.5448905,
        "long": 61.1519716,
        "street_name": "Spohn"
    },
    {
        "id": 984,
        "address": "209 Continental Way",
        "pin_code": "0",
        "lat": "36.34931",
        "long": "126.59772",
        "street_name": "Daystar"
    },
    {
        "id": 97,
        "address": "6347 Artisan Crossing",
        "pin_code": "00",
        "lat": 48.6047256,
        "long": 2.430785,
        "street_name": "Almo"
    },
    {
        "id": 154,
        "address": "7299 Weeping Birch Way",
        "pin_code": "00",
        "lat": 21.7960343,
        "long": -79.9808143,
        "street_name": "International"
    },
    {
        "id": 358,
        "address": "176 Atwood Plaza",
        "pin_code": "00",
        "lat": 26.8626548,
        "long": 85.5560635,
        "street_name": "Milwaukee"
    },
    {
        "id": 717,
        "address": "133 Green Hill",
        "pin_code": "00",
        "lat": 31.491169,
        "long": 120.31191,
        "street_name": "Darwin"
    },
    {
        "id": 981,
        "address": "843 Hermina Drive",
        "pin_code": "0005",
        "lat": 34.351432,
        "long": 107.387303,
        "street_name": "Troy"
    },
    {
        "id": 732,
        "address": "64 Bunting Place",
        "pin_code": "0008",
        "lat": 55.7195009,
        "long": 21.9281999,
        "street_name": "Thierer"
    },
    {
        "id": 377,
        "address": "64 Commercial Circle",
        "pin_code": "00123",
        "lat": 16.4826614,
        "long": -85.8793252,
        "street_name": "Welch"
    },
    {
        "id": 813,
        "address": "28 Fairfield Street",
        "pin_code": "007",
        "lat": 6.191677,
        "long": -73.0169135,
        "street_name": "Ryan"
    },
    {
        "id": 9,
        "address": "787 American Park",
        "pin_code": "01",
        "lat": 38.119756,
        "long": 23.8661305,
        "street_name": "Maple"
    },
    {
        "id": 320,
        "address": "8795 Basil Park",
        "pin_code": "010",
        "lat": 41.6429311,
        "long": -8.1464077,
        "street_name": "Schiller"
    },
    {
        "id": 477,
        "address": "6342 Westridge Crossing",
        "pin_code": "01104",
        "lat": 15.3362649,
        "long": -88.5529063,
        "street_name": "Old Shore"
    },
    {
        "id": 474,
        "address": "085 Golf View Pass",
        "pin_code": "012",
        "lat": 34.949137,
        "long": 104.470279,
        "street_name": "Mandrake"
    },
    {
        "id": 48,
        "address": "3367 Dakota Junction",
        "pin_code": "01247",
        "lat": 9.442952,
        "long": -75.5509602,
        "street_name": "Northview"
    },
    {
        "id": 730,
        "address": "718 Union Crossing",
        "pin_code": "01276",
        "lat": 11.6313786,
        "long": 125.4600442,
        "street_name": "Alpine"
    },
    {
        "id": 644,
        "address": "859 Main Center",
        "pin_code": "015",
        "lat": -19.4878116,
        "long": -46.5450499,
        "street_name": "Maple"
    },
    {
        "id": 391,
        "address": "9288 Schmedeman Drive",
        "pin_code": "0193",
        "lat": 52.3723858,
        "long": 9.6890537,
        "street_name": "Melby"
    },
    {
        "id": 137,
        "address": "73991 Kinsman Center",
        "pin_code": "02",
        "lat": 31.6095648,
        "long": 64.4082082,
        "street_name": "Badeau"
    },
    {
        "id": 559,
        "address": "772 Victoria Point",
        "pin_code": "02391",
        "lat": 27.937146,
        "long": 116.298866,
        "street_name": "Fallview"
    },
    {
        "id": 247,
        "address": "34617 Monterey Park",
        "pin_code": "026",
        "lat": 28.922003,
        "long": 110.898783,
        "street_name": "Anniversary"
    },
    {
        "id": 333,
        "address": "37295 Grim Drive",
        "pin_code": "0266",
        "lat": 45.2625083,
        "long": 17.427272,
        "street_name": "Heath"
    },
    {
        "id": 713,
        "address": "67 Derek Drive",
        "pin_code": "0286",
        "lat": 11.3232042,
        "long": -12.2891314,
        "street_name": "Doe Crossing"
    },
    {
        "id": 126,
        "address": "9 Oakridge Way",
        "pin_code": "0290",
        "lat": -7.6378396,
        "long": 107.728092,
        "street_name": "Vermont"
    },
    {
        "id": 503,
        "address": "1282 Burrows Avenue",
        "pin_code": "03188",
        "lat": 9.9886653,
        "long": 122.8148975,
        "street_name": "Esch"
    },
    {
        "id": 248,
        "address": "4 Logan Park",
        "pin_code": "0331",
        "lat": 40.076762,
        "long": 113.300129,
        "street_name": "Sullivan"
    },
    {
        "id": 409,
        "address": "753 Erie Pass",
        "pin_code": "0353",
        "lat": 5.3673999,
        "long": 10.417181,
        "street_name": "Green Ridge"
    },
    {
        "id": 939,
        "address": "26 5th Lane",
        "pin_code": "0375",
        "lat": -7.0631844,
        "long": 107.7843483,
        "street_name": "Atwood"
    },
    {
        "id": 335,
        "address": "5 Jay Alley",
        "pin_code": "04",
        "lat": -2.763864,
        "long": 101.3338009,
        "street_name": "Pearson"
    },
    {
        "id": 592,
        "address": "7 Lotheville Parkway",
        "pin_code": "04209",
        "lat": "35.41",
        "long": "127.38583",
        "street_name": "Donald"
    },
    {
        "id": 702,
        "address": "83810 Redwing Circle",
        "pin_code": "04324",
        "lat": 41.6569962,
        "long": -8.4356533,
        "street_name": "American"
    },
    {
        "id": 189,
        "address": "529 Sachs Place",
        "pin_code": "0459",
        "lat": 22.719257,
        "long": 114.055261,
        "street_name": "2nd"
    },
    {
        "id": 319,
        "address": "4400 Loomis Crossing",
        "pin_code": "0479",
        "lat": 34.9568026,
        "long": -106.6055534,
        "street_name": "Manitowish"
    },
    {
        "id": 236,
        "address": "08 Laurel Court",
        "pin_code": "05",
        "lat": 32.082978,
        "long": 35.364579,
        "street_name": "David"
    },
    {
        "id": 567,
        "address": "18 Utah Park",
        "pin_code": "05",
        "lat": 14.5699334,
        "long": 121.0204582,
        "street_name": "Paget"
    },
    {
        "id": 972,
        "address": "2 2nd Center",
        "pin_code": "053",
        "lat": 7.3275252,
        "long": 122.8946032,
        "street_name": "Karstens"
    },
    {
        "id": 400,
        "address": "0 Erie Park",
        "pin_code": "0547",
        "lat": 26.497765,
        "long": 101.738528,
        "street_name": "Crownhardt"
    },
    {
        "id": 255,
        "address": "77 Forest Trail",
        "pin_code": "0550",
        "lat": 38.5642115,
        "long": -9.0940605,
        "street_name": "Roth"
    },
    {
        "id": 683,
        "address": "8 Towne Lane",
        "pin_code": "056",
        "lat": 51.2329872,
        "long": 24.0364394,
        "street_name": "Killdeer"
    },
    {
        "id": 157,
        "address": "4 Jenna Way",
        "pin_code": "05694",
        "lat": -12.0443399,
        "long": -77.0309888,
        "street_name": "Porter"
    },
    {
        "id": 264,
        "address": "65 Onsgard Center",
        "pin_code": "06",
        "lat": 5.83864,
        "long": 118.116958,
        "street_name": "Esch"
    },
    {
        "id": 329,
        "address": "08 Ludington Park",
        "pin_code": "06",
        "lat": 32.320332,
        "long": 116.557208,
        "street_name": "Wayridge"
    },
    {
        "id": 327,
        "address": "5 Mallard Avenue",
        "pin_code": "062",
        "lat": -30.6732959,
        "long": -51.4052742,
        "street_name": "Sundown"
    },
    {
        "id": 429,
        "address": "52224 North Junction",
        "pin_code": "0633",
        "lat": 35.8521978,
        "long": 114.3530642,
        "street_name": "Troy"
    },
    {
        "id": 508,
        "address": "126 Schlimgen Park",
        "pin_code": "06380",
        "lat": -10.573164,
        "long": 121.738421,
        "street_name": "Macpherson"
    },
    {
        "id": 47,
        "address": "087 Gerald Place",
        "pin_code": "0652",
        "lat": 18.6522482,
        "long": -72.0927374,
        "street_name": "Anderson"
    },
    {
        "id": 997,
        "address": "2842 Helena Lane",
        "pin_code": "066",
        "lat": "-9.7138",
        "long": "120.0297",
        "street_name": "1st"
    },
    {
        "id": 862,
        "address": "51415 Garrison Road",
        "pin_code": "06822",
        "lat": 40.2715286,
        "long": 44.633383,
        "street_name": "Summit"
    },
    {
        "id": 359,
        "address": "246 Goodland Way",
        "pin_code": "069",
        "lat": 50.300542,
        "long": 2.801689,
        "street_name": "Shoshone"
    },
    {
        "id": 829,
        "address": "45925 Petterle Junction",
        "pin_code": "069",
        "lat": 7.743026,
        "long": 124.210303,
        "street_name": "Main"
    },
    {
        "id": 325,
        "address": "156 Clyde Gallagher Plaza",
        "pin_code": "07",
        "lat": 44.166512,
        "long": 79.999974,
        "street_name": "Iowa"
    },
    {
        "id": 380,
        "address": "0 Monterey Lane",
        "pin_code": "07",
        "lat": 28.369399,
        "long": 116.546998,
        "street_name": "New Castle"
    },
    {
        "id": 647,
        "address": "8512 Ryan Park",
        "pin_code": "0702",
        "lat": 51.0377956,
        "long": 31.8880994,
        "street_name": "Myrtle"
    },
    {
        "id": 308,
        "address": "94447 Fulton Circle",
        "pin_code": "071",
        "lat": 40.5139985,
        "long": 72.8160976,
        "street_name": "Shoshone"
    },
    {
        "id": 368,
        "address": "87 Briar Crest Hill",
        "pin_code": "0728",
        "lat": 49.9112092,
        "long": 16.7105196,
        "street_name": "Meadow Ridge"
    },
    {
        "id": 680,
        "address": "13318 Transport Circle",
        "pin_code": "07282",
        "lat": -8.2614583,
        "long": -77.8988897,
        "street_name": "Tennyson"
    },
    {
        "id": 219,
        "address": "91 Golf Way",
        "pin_code": "0729",
        "lat": 38.0187253,
        "long": 140.1471983,
        "street_name": "Westend"
    },
    {
        "id": 578,
        "address": "397 Forest Run Terrace",
        "pin_code": "074",
        "lat": -11.22075,
        "long": -75.4694285,
        "street_name": "Chinook"
    },
    {
        "id": 845,
        "address": "73 Truax Center",
        "pin_code": "07551",
        "lat": 24.3520171,
        "long": 116.6930225,
        "street_name": "Cambridge"
    },
    {
        "id": 553,
        "address": "93 Caliangt Crossing",
        "pin_code": "07694",
        "lat": 51.8063451,
        "long": 26.0265105,
        "street_name": "Arizona"
    },
    {
        "id": 611,
        "address": "7041 Rowland Park",
        "pin_code": "07817",
        "lat": -0.5223759,
        "long": 121.674572,
        "street_name": "Canary"
    },
    {
        "id": 668,
        "address": "239 Thierer Hill",
        "pin_code": "0796",
        "lat": 30.4322645,
        "long": 72.3382454,
        "street_name": "Commercial"
    },
    {
        "id": 868,
        "address": "69511 Di Loreto Court",
        "pin_code": "08",
        "lat": 49.8162832,
        "long": 19.3295966,
        "street_name": "Bobwhite"
    },
    {
        "id": 562,
        "address": "80 Weeping Birch Way",
        "pin_code": "0808",
        "lat": 22.625636,
        "long": 114.038535,
        "street_name": "Northport"
    },
    {
        "id": 501,
        "address": "13508 Garrison Avenue",
        "pin_code": "082",
        "lat": 49.8691189,
        "long": 15.5800287,
        "street_name": "Bonner"
    },
    {
        "id": 215,
        "address": "225 Judy Crossing",
        "pin_code": "08437",
        "lat": 45.5272739,
        "long": 16.2749715,
        "street_name": "Troy"
    },
    {
        "id": 923,
        "address": "5 Summit Road",
        "pin_code": "08614",
        "lat": 39.3666967,
        "long": -9.0250527,
        "street_name": "Alpine"
    },
    {
        "id": 310,
        "address": "9352 Talmadge Lane",
        "pin_code": "087",
        "lat": -29.4484468,
        "long": -66.8679635,
        "street_name": "Jay"
    },
    {
        "id": 464,
        "address": "6 Veith Road",
        "pin_code": "08822",
        "lat": 30.400907,
        "long": 111.81127,
        "street_name": "Coleman"
    },
    {
        "id": 111,
        "address": "1 Truax Trail",
        "pin_code": "09",
        "lat": 51.4174812,
        "long": 5.5610329,
        "street_name": "Melrose"
    },
    {
        "id": 240,
        "address": "7 Sunfield Pass",
        "pin_code": "09",
        "lat": 1.5073967,
        "long": 21.0728664,
        "street_name": "Toban"
    },
    {
        "id": 733,
        "address": "89 Wayridge Trail",
        "pin_code": "09",
        "lat": 49.9313612,
        "long": 14.3818464,
        "street_name": "Garrison"
    },
    {
        "id": 514,
        "address": "901 Oriole Plaza",
        "pin_code": "090",
        "lat": 58.2730218,
        "long": 13.1994008,
        "street_name": "Evergreen"
    },
    {
        "id": 496,
        "address": "48 Melvin Alley",
        "pin_code": "09305",
        "lat": -7.0587981,
        "long": 108.6620986,
        "street_name": "Jana"
    },
    {
        "id": 745,
        "address": "84093 Loeprich Trail",
        "pin_code": "094",
        "lat": 28.168408,
        "long": 120.482198,
        "street_name": "Atwood"
    },
    {
        "id": 88,
        "address": "5081 Melrose Circle",
        "pin_code": "0946",
        "lat": 35.319084,
        "long": 114.540858,
        "street_name": "Bartillon"
    },
    {
        "id": 32,
        "address": "2245 2nd Place",
        "pin_code": "1",
        "lat": 37.646108,
        "long": 120.477813,
        "street_name": "Lillian"
    },
    {
        "id": 86,
        "address": "2125 Moland Place",
        "pin_code": "1",
        "lat": -6.5930581,
        "long": 105.977608,
        "street_name": "Donald"
    },
    {
        "id": 127,
        "address": "667 Farragut Street",
        "pin_code": "1",
        "lat": -4.0447102,
        "long": 121.6511258,
        "street_name": "Daystar"
    },
    {
        "id": 412,
        "address": "98641 Vahlen Place",
        "pin_code": "1",
        "lat": -17.9164482,
        "long": 15.0937378,
        "street_name": "Oriole"
    },
    {
        "id": 427,
        "address": "60 Lotheville Avenue",
        "pin_code": "1",
        "lat": 48.1392924,
        "long": -1.9439194,
        "street_name": "Mallard"
    },
    {
        "id": 482,
        "address": "752 Victoria Place",
        "pin_code": "1",
        "lat": 48.413703,
        "long": 27.471753,
        "street_name": "Acker"
    },
    {
        "id": 549,
        "address": "2 Transport Drive",
        "pin_code": "1",
        "lat": 37.08828,
        "long": 79.855399,
        "street_name": "Claremont"
    },
    {
        "id": 571,
        "address": "7730 Morning Avenue",
        "pin_code": "1",
        "lat": 45.7164219,
        "long": 4.8750727,
        "street_name": "Mayfield"
    },
    {
        "id": 601,
        "address": "7933 Kropf Place",
        "pin_code": "1",
        "lat": -6.2916321,
        "long": 106.9593926,
        "street_name": "Gulseth"
    },
    {
        "id": 698,
        "address": "43 Crest Line Parkway",
        "pin_code": "1",
        "lat": -28.2252,
        "long": 28.30652,
        "street_name": "Rigney"
    },
    {
        "id": 757,
        "address": "73604 Schurz Parkway",
        "pin_code": "1",
        "lat": -6.6710208,
        "long": 106.8266873,
        "street_name": "Vermont"
    },
    {
        "id": 779,
        "address": "1729 Farragut Street",
        "pin_code": "1",
        "lat": -3.7127631,
        "long": -43.8673222,
        "street_name": "Hoffman"
    },
    {
        "id": 838,
        "address": "4203 Florence Trail",
        "pin_code": "1",
        "lat": 36.0896801,
        "long": -79.9528451,
        "street_name": "Westridge"
    },
    {
        "id": 857,
        "address": "9 Kensington Court",
        "pin_code": "1",
        "lat": 18.7863009,
        "long": -69.6531674,
        "street_name": "Hanover"
    },
    {
        "id": 901,
        "address": "6 Carey Place",
        "pin_code": "1",
        "lat": 23.6347,
        "long": 102.826557,
        "street_name": "Maywood"
    },
    {
        "id": 974,
        "address": "3251 Barby Avenue",
        "pin_code": "1",
        "lat": 4.917531,
        "long": -74.024773,
        "street_name": "Transport"
    },
    {
        "id": 863,
        "address": "5854 Red Cloud Avenue",
        "pin_code": "101",
        "lat": "36.13848",
        "long": "36.61247",
        "street_name": "Lighthouse Bay"
    },
    {
        "id": 463,
        "address": "4089 Carberry Junction",
        "pin_code": "10572",
        "lat": 41.343933,
        "long": 86.261321,
        "street_name": "Basil"
    },
    {
        "id": 793,
        "address": "44434 Helena Way",
        "pin_code": "107",
        "lat": 1.1752216,
        "long": 109.9973244,
        "street_name": "Dayton"
    },
    {
        "id": 361,
        "address": "20 Pond Place",
        "pin_code": "11",
        "lat": 7.8119593,
        "long": 5.0676766,
        "street_name": "Esker"
    },
    {
        "id": 511,
        "address": "4 Butterfield Terrace",
        "pin_code": "11063",
        "lat": -6.990714,
        "long": 107.400299,
        "street_name": "5th"
    },
    {
        "id": 656,
        "address": "04 Sommers Road",
        "pin_code": "111",
        "lat": -7.7812913,
        "long": 110.5066489,
        "street_name": "Nobel"
    },
    {
        "id": 27,
        "address": "246 Toban Circle",
        "pin_code": "1126",
        "lat": 32.675098,
        "long": -17.028154,
        "street_name": "Sutherland"
    },
    {
        "id": 169,
        "address": "08041 Corben Lane",
        "pin_code": "11388",
        "lat": -26.2938504,
        "long": 27.916505,
        "street_name": "Oak"
    },
    {
        "id": 883,
        "address": "34 Lillian Crossing",
        "pin_code": "115",
        "lat": 45.304073,
        "long": 130.980894,
        "street_name": "Leroy"
    },
    {
        "id": 287,
        "address": "30829 1st Place",
        "pin_code": "11624",
        "lat": 14.2524816,
        "long": 100.7323332,
        "street_name": "Heath"
    },
    {
        "id": 914,
        "address": "3 Thierer Terrace",
        "pin_code": "1171",
        "lat": 37.73892,
        "long": 115.670177,
        "street_name": "Montana"
    },
    {
        "id": 822,
        "address": "75 Hintze Road",
        "pin_code": "11713",
        "lat": 27.145704,
        "long": 106.457478,
        "street_name": "Sloan"
    },
    {
        "id": 130,
        "address": "7699 Monterey Hill",
        "pin_code": "1179",
        "lat": -8.5361861,
        "long": 115.1444487,
        "street_name": "Raven"
    },
    {
        "id": 350,
        "address": "17311 Warner Lane",
        "pin_code": "12",
        "lat": 39.6053819,
        "long": -8.4043125,
        "street_name": "Dayton"
    },
    {
        "id": 700,
        "address": "2 4th Junction",
        "pin_code": "12",
        "lat": -8.8196754,
        "long": 121.0507098,
        "street_name": "Continental"
    },
    {
        "id": 875,
        "address": "8723 Raven Junction",
        "pin_code": "12",
        "lat": 22.919769,
        "long": 113.618216,
        "street_name": "Transport"
    },
    {
        "id": 873,
        "address": "5162 Cascade Pass",
        "pin_code": "120",
        "lat": -16.7111944,
        "long": -151.0340359,
        "street_name": "Prairie Rose"
    },
    {
        "id": 389,
        "address": "0424 Dixon Road",
        "pin_code": "122",
        "lat": -6.3783847,
        "long": -41.8004409,
        "street_name": "Crescent Oaks"
    },
    {
        "id": 282,
        "address": "63704 Washington Street",
        "pin_code": "1229",
        "lat": 28.708282,
        "long": 89.944038,
        "street_name": "Garrison"
    },
    {
        "id": 197,
        "address": "8 Banding Pass",
        "pin_code": "124",
        "lat": 51.4633686,
        "long": 19.0896399,
        "street_name": "Oak"
    },
    {
        "id": 726,
        "address": "9742 Schlimgen Way",
        "pin_code": "124",
        "lat": 46.7530428,
        "long": -71.2196569,
        "street_name": "Mallory"
    },
    {
        "id": 190,
        "address": "2453 Sauthoff Junction",
        "pin_code": "1244",
        "lat": -14.116667,
        "long": -73.616667,
        "street_name": "Straubel"
    },
    {
        "id": 525,
        "address": "19060 Packers Avenue",
        "pin_code": "125",
        "lat": 9.752419,
        "long": 122.4105,
        "street_name": "Pierstorff"
    },
    {
        "id": 171,
        "address": "15110 Village Green Junction",
        "pin_code": "1259",
        "lat": 7.591829,
        "long": 124.0735387,
        "street_name": "Artisan"
    },
    {
        "id": 37,
        "address": "18 Lunder Terrace",
        "pin_code": "1282",
        "lat": 53.7406255,
        "long": 55.8746137,
        "street_name": "Acker"
    },
    {
        "id": 479,
        "address": "84 Fuller Point",
        "pin_code": "1287",
        "lat": 38.9951183,
        "long": 139.9228567,
        "street_name": "Scoville"
    },
    {
        "id": 217,
        "address": "75723 8th Plaza",
        "pin_code": "12881",
        "lat": "-8.3052",
        "long": "123.237",
        "street_name": "Fuller"
    },
    {
        "id": 512,
        "address": "4 Rockefeller Center",
        "pin_code": "1293",
        "lat": 59.5891945,
        "long": 16.5104253,
        "street_name": "7th"
    },
    {
        "id": 936,
        "address": "85320 Ilene Hill",
        "pin_code": "13",
        "lat": 46.3410256,
        "long": 4.9979479,
        "street_name": "Esker"
    },
    {
        "id": 662,
        "address": "7439 Elmside Center",
        "pin_code": "131",
        "lat": 40.6285158,
        "long": -73.9447994,
        "street_name": "New Castle"
    },
    {
        "id": 450,
        "address": "8403 Superior Terrace",
        "pin_code": "132",
        "lat": "0.10144",
        "long": "127.43402",
        "street_name": "Transport"
    },
    {
        "id": 725,
        "address": "913 Dryden Pass",
        "pin_code": "13233",
        "lat": "5.84671",
        "long": "6.15257",
        "street_name": "Lake View"
    },
    {
        "id": 825,
        "address": "29815 Kensington Circle",
        "pin_code": "13572",
        "lat": 59.8668258,
        "long": 17.6537608,
        "street_name": "Tony"
    },
    {
        "id": 591,
        "address": "1 Surrey Alley",
        "pin_code": "138",
        "lat": -13.5338933,
        "long": -75.314433,
        "street_name": "East"
    },
    {
        "id": 788,
        "address": "71150 Kipling Court",
        "pin_code": "138",
        "lat": 51.3303754,
        "long": 12.40504,
        "street_name": "Transport"
    },
    {
        "id": 653,
        "address": "5309 Ridgeway Lane",
        "pin_code": "13968",
        "lat": 15.491919,
        "long": 99.8348146,
        "street_name": "Starling"
    },
    {
        "id": 639,
        "address": "48 Annamark Way",
        "pin_code": "14",
        "lat": 38.5193772,
        "long": 26.2363678,
        "street_name": "Washington"
    },
    {
        "id": 878,
        "address": "20 Barnett Center",
        "pin_code": "14",
        "lat": 13.2326269,
        "long": -61.265623,
        "street_name": "Corry"
    },
    {
        "id": 941,
        "address": "08 Jenna Circle",
        "pin_code": "1414",
        "lat": 33.24846,
        "long": 132.6146565,
        "street_name": "Washington"
    },
    {
        "id": 991,
        "address": "1 Old Gate Trail",
        "pin_code": "1427",
        "lat": 35.6553472,
        "long": 139.5476397,
        "street_name": "Clarendon"
    },
    {
        "id": 20,
        "address": "21926 Reinke Lane",
        "pin_code": "14333",
        "lat": 20.5083303,
        "long": -97.6724456,
        "street_name": "Marquette"
    },
    {
        "id": 521,
        "address": "26 Lakewood Gardens Trail",
        "pin_code": "144",
        "lat": 9.5138582,
        "long": 123.1654018,
        "street_name": "Oak"
    },
    {
        "id": 162,
        "address": "5 Bunting Lane",
        "pin_code": "14431",
        "lat": 10.4471471,
        "long": -74.4086073,
        "street_name": "Kennedy"
    },
    {
        "id": 216,
        "address": "942 Harbort Drive",
        "pin_code": "1450",
        "lat": 31.2633956,
        "long": 72.3110986,
        "street_name": "Nobel"
    },
    {
        "id": 599,
        "address": "711 Monument Terrace",
        "pin_code": "1469",
        "lat": 55.5099217,
        "long": 86.1521385,
        "street_name": "Green Ridge"
    },
    {
        "id": 695,
        "address": "76992 Holmberg Junction",
        "pin_code": "150",
        "lat": 8.5860654,
        "long": -79.8464804,
        "street_name": "Hallows"
    },
    {
        "id": 767,
        "address": "358 Ramsey Center",
        "pin_code": "1512",
        "lat": 48.8295792,
        "long": 30.0368231,
        "street_name": "Kropf"
    },
    {
        "id": 129,
        "address": "47213 Waxwing Lane",
        "pin_code": "15486",
        "lat": 37.9773385,
        "long": 140.1850334,
        "street_name": "South"
    },
    {
        "id": 234,
        "address": "112 Forest Run Street",
        "pin_code": "1557",
        "lat": 33.5068235,
        "long": 70.6960868,
        "street_name": "Brentwood"
    },
    {
        "id": 446,
        "address": "64965 Kensington Avenue",
        "pin_code": "157",
        "lat": 49.8861287,
        "long": 20.608396,
        "street_name": "Hermina"
    },
    {
        "id": 179,
        "address": "677 Dapin Court",
        "pin_code": "159",
        "lat": 22.919769,
        "long": 113.618216,
        "street_name": "Old Shore"
    },
    {
        "id": 293,
        "address": "6318 Calypso Park",
        "pin_code": "16380",
        "lat": "51.40698",
        "long": "91.29244",
        "street_name": "Morning"
    },
    {
        "id": 881,
        "address": "5 Bultman Crossing",
        "pin_code": "164",
        "lat": 37.8098511,
        "long": 139.1200637,
        "street_name": "Lindbergh"
    },
    {
        "id": 724,
        "address": "123 Manitowish Way",
        "pin_code": "16478",
        "lat": 58.6247472,
        "long": 59.8241142,
        "street_name": "Eastwood"
    },
    {
        "id": 720,
        "address": "784 Sommers Road",
        "pin_code": "1668",
        "lat": 23.681533,
        "long": 110.584168,
        "street_name": "Welch"
    },
    {
        "id": 424,
        "address": "1 Weeping Birch Park",
        "pin_code": "167",
        "lat": 24.2629574,
        "long": 97.2383178,
        "street_name": "Nobel"
    },
    {
        "id": 786,
        "address": "561 Eliot Place",
        "pin_code": "168",
        "lat": 32.629398,
        "long": 110.798266,
        "street_name": "Clarendon"
    },
    {
        "id": 180,
        "address": "40802 7th Terrace",
        "pin_code": "17",
        "lat": -8.3069745,
        "long": 118.5097517,
        "street_name": "Arkansas"
    },
    {
        "id": 70,
        "address": "95 Division Street",
        "pin_code": "17100",
        "lat": 4.625907,
        "long": -75.761865,
        "street_name": "Golf"
    },
    {
        "id": 681,
        "address": "56 Welch Way",
        "pin_code": "1749",
        "lat": 38.5904096,
        "long": -8.9994843,
        "street_name": "Eliot"
    },
    {
        "id": 385,
        "address": "0894 Truax Place",
        "pin_code": "175",
        "lat": 49.9469881,
        "long": 18.1870189,
        "street_name": "Briar Crest"
    },
    {
        "id": 44,
        "address": "43 Colorado Junction",
        "pin_code": "177",
        "lat": 39.74,
        "long": -104.98,
        "street_name": "Fairview"
    },
    {
        "id": 379,
        "address": "6 Hanson Alley",
        "pin_code": "17725",
        "lat": 35.201931,
        "long": 100.847521,
        "street_name": "Blackbird"
    },
    {
        "id": 107,
        "address": "81989 Beilfuss Way",
        "pin_code": "1795",
        "lat": 39.9265747,
        "long": 48.9205727,
        "street_name": "West"
    },
    {
        "id": 843,
        "address": "22705 Evergreen Plaza",
        "pin_code": "18",
        "lat": 45.9769612,
        "long": 15.0909889,
        "street_name": "Twin Pines"
    },
    {
        "id": 29,
        "address": "314 Northwestern Trail",
        "pin_code": "1814",
        "lat": -8.44477,
        "long": 115.2413041,
        "street_name": "Corben"
    },
    {
        "id": 165,
        "address": "20 Pine View Avenue",
        "pin_code": "183",
        "lat": 18.1741581,
        "long": -78.0295273,
        "street_name": "Sunnyside"
    },
    {
        "id": 432,
        "address": "6 Claremont Junction",
        "pin_code": "187",
        "lat": -8.4334199,
        "long": 123.3682521,
        "street_name": "Holy Cross"
    },
    {
        "id": 630,
        "address": "29269 Farwell Plaza",
        "pin_code": "187",
        "lat": 55.4100741,
        "long": 12.8520369,
        "street_name": "Almo"
    },
    {
        "id": 102,
        "address": "99058 Buell Street",
        "pin_code": "1893",
        "lat": 23.3854292,
        "long": 113.4895468,
        "street_name": "Algoma"
    },
    {
        "id": 988,
        "address": "8639 Hallows Circle",
        "pin_code": "1922",
        "lat": 52.1466159,
        "long": 23.3386501,
        "street_name": "Delladonna"
    },
    {
        "id": 707,
        "address": "49 Maple Wood Crossing",
        "pin_code": "1927",
        "lat": 42.2470995,
        "long": 2.0763253,
        "street_name": "Esch"
    },
    {
        "id": 832,
        "address": "050 Moland Center",
        "pin_code": "193",
        "lat": "50.49976",
        "long": "-120.80253",
        "street_name": "Spaight"
    },
    {
        "id": 538,
        "address": "18954 Meadow Ridge Parkway",
        "pin_code": "1946",
        "lat": 41.3336366,
        "long": -8.5749394,
        "street_name": "Bluejay"
    },
    {
        "id": 150,
        "address": "294 Clove Crossing",
        "pin_code": "1958",
        "lat": 44.9799999,
        "long": -93.26,
        "street_name": "Judy"
    },
    {
        "id": 946,
        "address": "07898 Ridgeway Point",
        "pin_code": "196",
        "lat": 14.2345436,
        "long": 121.0929584,
        "street_name": "Pankratz"
    },
    {
        "id": 148,
        "address": "617 Fallview Plaza",
        "pin_code": "19794",
        "lat": 29.139697,
        "long": 111.827018,
        "street_name": "Drewry"
    },
    {
        "id": 776,
        "address": "5 Melrose Parkway",
        "pin_code": "19989",
        "lat": -9.8596373,
        "long": 124.2754988,
        "street_name": "Crownhardt"
    },
    {
        "id": 114,
        "address": "66 Del Mar Center",
        "pin_code": "2",
        "lat": 2.886246,
        "long": -75.433419,
        "street_name": "Maryland"
    },
    {
        "id": 115,
        "address": "13 Ludington Lane",
        "pin_code": "2",
        "lat": 49.4411457,
        "long": 14.4059275,
        "street_name": "Beilfuss"
    },
    {
        "id": 122,
        "address": "3 Leroy Junction",
        "pin_code": "2",
        "lat": 49.715157,
        "long": 19.65651,
        "street_name": "Kinsman"
    },
    {
        "id": 139,
        "address": "924 Melrose Alley",
        "pin_code": "2",
        "lat": 56.4808469,
        "long": 43.5438088,
        "street_name": "Melby"
    },
    {
        "id": 351,
        "address": "9276 Westridge Pass",
        "pin_code": "2",
        "lat": 40.025532,
        "long": 44.5593439,
        "street_name": "Ruskin"
    },
    {
        "id": 370,
        "address": "879 North Alley",
        "pin_code": "2",
        "lat": 35.342561,
        "long": 101.903378,
        "street_name": "Clyde Gallagher"
    },
    {
        "id": 504,
        "address": "80045 Barnett Pass",
        "pin_code": "2",
        "lat": 62.1738098,
        "long": 29.2055142,
        "street_name": "Glendale"
    },
    {
        "id": 542,
        "address": "9 Carioca Alley",
        "pin_code": "2",
        "lat": "-17.53333",
        "long": "-149.33333",
        "street_name": "Little Fleur"
    },
    {
        "id": 573,
        "address": "6874 Summit Hill",
        "pin_code": "2",
        "lat": 49.4259425,
        "long": 17.5920528,
        "street_name": "Hoffman"
    },
    {
        "id": 582,
        "address": "4 Shopko Park",
        "pin_code": "2",
        "lat": -7.068917,
        "long": 108.399785,
        "street_name": "Scott"
    },
    {
        "id": 596,
        "address": "38 Shelley Crossing",
        "pin_code": "2",
        "lat": 1.5484759,
        "long": 103.7983752,
        "street_name": "Butterfield"
    },
    {
        "id": 632,
        "address": "8086 Eggendart Circle",
        "pin_code": "2",
        "lat": -7.2209016,
        "long": 106.962467,
        "street_name": "Bartillon"
    },
    {
        "id": 638,
        "address": "65318 Rutledge Court",
        "pin_code": "2",
        "lat": 40.5329933,
        "long": 50.0035678,
        "street_name": "Iowa"
    },
    {
        "id": 657,
        "address": "628 Quincy Junction",
        "pin_code": "2",
        "lat": 34.3264348,
        "long": 117.2438579,
        "street_name": "Declaration"
    },
    {
        "id": 716,
        "address": "1505 Hazelcrest Junction",
        "pin_code": "2",
        "lat": 14.5639944,
        "long": 121.0326387,
        "street_name": "Parkside"
    },
    {
        "id": 791,
        "address": "52 Lakeland Crossing",
        "pin_code": "2",
        "lat": 22.0557244,
        "long": 106.615868,
        "street_name": "Swallow"
    },
    {
        "id": 807,
        "address": "88 Kim Center",
        "pin_code": "2",
        "lat": -6.8840816,
        "long": 107.5413039,
        "street_name": "Leroy"
    },
    {
        "id": 884,
        "address": "9438 Ohio Parkway",
        "pin_code": "2",
        "lat": -6.9957759,
        "long": 112.5677183,
        "street_name": "Golden Leaf"
    },
    {
        "id": 897,
        "address": "28488 Pearson Trail",
        "pin_code": "2",
        "lat": 34.4154198,
        "long": 132.4043341,
        "street_name": "Quincy"
    },
    {
        "id": 906,
        "address": "26 Gateway Point",
        "pin_code": "2",
        "lat": 30.972043,
        "long": 117.23282,
        "street_name": "Anhalt"
    },
    {
        "id": 922,
        "address": "7622 6th Center",
        "pin_code": "2",
        "lat": 37.039991,
        "long": 115.667208,
        "street_name": "Hintze"
    },
    {
        "id": 478,
        "address": "72091 Village Green Place",
        "pin_code": "2000",
        "lat": 22.324743,
        "long": 114.211039,
        "street_name": "Sachs"
    },
    {
        "id": 484,
        "address": "4299 Hanover Way",
        "pin_code": "2013",
        "lat": 53.3004898,
        "long": -6.2634596,
        "street_name": "Loftsgordon"
    },
    {
        "id": 887,
        "address": "13064 Green Trail",
        "pin_code": "20226",
        "lat": -8.8230363,
        "long": 121.9373561,
        "street_name": "Beilfuss"
    },
    {
        "id": 953,
        "address": "4 Namekagon Crossing",
        "pin_code": "20233",
        "lat": 16.9672048,
        "long": 42.8285605,
        "street_name": "8th"
    },
    {
        "id": 789,
        "address": "16 Corscot Alley",
        "pin_code": "207",
        "lat": 58.0312993,
        "long": 38.6043668,
        "street_name": "Jenifer"
    },
    {
        "id": 890,
        "address": "8910 South Avenue",
        "pin_code": "20754",
        "lat": 8.636758,
        "long": -11.4722494,
        "street_name": "Reinke"
    },
    {
        "id": 113,
        "address": "4320 Hallows Avenue",
        "pin_code": "21",
        "lat": 29.893672,
        "long": 110.346166,
        "street_name": "Aberg"
    },
    {
        "id": 280,
        "address": "8 Stoughton Road",
        "pin_code": "21",
        "lat": 41.273153,
        "long": 125.361759,
        "street_name": "Jana"
    },
    {
        "id": 820,
        "address": "61 Park Meadow Hill",
        "pin_code": "21",
        "lat": 40.3329294,
        "long": 116.6356312,
        "street_name": "Rieder"
    },
    {
        "id": 618,
        "address": "74921 Crest Line Alley",
        "pin_code": "210",
        "lat": "50.03332",
        "long": "-113.58524",
        "street_name": "Florence"
    },
    {
        "id": 615,
        "address": "924 Hovde Place",
        "pin_code": "2102",
        "lat": 49.0285391,
        "long": 2.3236877,
        "street_name": "Esker"
    },
    {
        "id": 976,
        "address": "2 Lillian Junction",
        "pin_code": "212",
        "lat": 19.482042,
        "long": -99.1985584,
        "street_name": "Eggendart"
    },
    {
        "id": 91,
        "address": "3 Clarendon Circle",
        "pin_code": "21216",
        "lat": 42.76631,
        "long": 129.427066,
        "street_name": "Erie"
    },
    {
        "id": 554,
        "address": "32 Tony Center",
        "pin_code": "21258",
        "lat": 41.2922523,
        "long": -8.6325611,
        "street_name": "Petterle"
    },
    {
        "id": 900,
        "address": "40305 Morningstar Drive",
        "pin_code": "21437",
        "lat": -1.7864953,
        "long": 37.6311071,
        "street_name": "Springs"
    },
    {
        "id": 534,
        "address": "9035 Sloan Place",
        "pin_code": "217",
        "lat": "-9.7018",
        "long": "120.4918",
        "street_name": "Meadow Valley"
    },
    {
        "id": 51,
        "address": "3 Arkansas Park",
        "pin_code": "21956",
        "lat": -21.2399347,
        "long": -43.7764925,
        "street_name": "Kipling"
    },
    {
        "id": 314,
        "address": "715 Menomonie Way",
        "pin_code": "22",
        "lat": -22.0857976,
        "long": -70.1930064,
        "street_name": "Paget"
    },
    {
        "id": 616,
        "address": "34034 Jenifer Circle",
        "pin_code": "22",
        "lat": 31.918232,
        "long": 119.976948,
        "street_name": "2nd"
    },
    {
        "id": 352,
        "address": "53564 Linden Junction",
        "pin_code": "22099",
        "lat": 5.5864963,
        "long": 95.3514016,
        "street_name": "Judy"
    },
    {
        "id": 772,
        "address": "91 Bunting Place",
        "pin_code": "2212",
        "lat": 48.9901636,
        "long": 17.3326946,
        "street_name": "Dawn"
    },
    {
        "id": 994,
        "address": "753 Hermina Drive",
        "pin_code": "2229",
        "lat": 7.8400507,
        "long": 122.4823401,
        "street_name": "Service"
    },
    {
        "id": 842,
        "address": "96661 Clarendon Street",
        "pin_code": "2238",
        "lat": 14.7275612,
        "long": 101.3658004,
        "street_name": "Summer Ridge"
    },
    {
        "id": 930,
        "address": "0643 Emmet Parkway",
        "pin_code": "22461",
        "lat": 24.7769775,
        "long": -107.4055282,
        "street_name": "Sutteridge"
    },
    {
        "id": 188,
        "address": "88 Buhler Drive",
        "pin_code": "225",
        "lat": 7.193611,
        "long": 100.592145,
        "street_name": "Memorial"
    },
    {
        "id": 744,
        "address": "396 Kingsford Place",
        "pin_code": "227",
        "lat": 60.6221986,
        "long": 15.6073973,
        "street_name": "Eastlawn"
    },
    {
        "id": 273,
        "address": "49 Crownhardt Street",
        "pin_code": "2271",
        "lat": 49.9958981,
        "long": 31.5594099,
        "street_name": "Drewry"
    },
    {
        "id": 62,
        "address": "1 Oak Valley Point",
        "pin_code": "2277",
        "lat": 13.6197501,
        "long": 25.3548713,
        "street_name": "Maryland"
    },
    {
        "id": 365,
        "address": "4344 Sunfield Parkway",
        "pin_code": "23",
        "lat": 38.0375021,
        "long": 125.7079231,
        "street_name": "Corscot"
    },
    {
        "id": 387,
        "address": "937 Old Gate Plaza",
        "pin_code": "23",
        "lat": -26.3593066,
        "long": 25.9068847,
        "street_name": "Linden"
    },
    {
        "id": 448,
        "address": "6468 Fair Oaks Drive",
        "pin_code": "23",
        "lat": "-10.539",
        "long": "121.8525",
        "street_name": "Mcbride"
    },
    {
        "id": 756,
        "address": "2 Loeprich Circle",
        "pin_code": "23",
        "lat": 25.6577006,
        "long": 57.7856677,
        "street_name": "Moland"
    },
    {
        "id": 826,
        "address": "55712 Columbus Crossing",
        "pin_code": "2304",
        "lat": 49.3230985,
        "long": 28.0823146,
        "street_name": "Ridge Oak"
    },
    {
        "id": 858,
        "address": "3515 Veith Junction",
        "pin_code": "232",
        "lat": 58.629948,
        "long": 25.5572383,
        "street_name": "Thackeray"
    },
    {
        "id": 755,
        "address": "9 Bayside Circle",
        "pin_code": "233",
        "lat": 14.4712676,
        "long": 121.0441201,
        "street_name": "Pleasure"
    },
    {
        "id": 237,
        "address": "5 Sunbrook Crossing",
        "pin_code": "235",
        "lat": 55.7165288,
        "long": 37.784921,
        "street_name": "Waubesa"
    },
    {
        "id": 666,
        "address": "09 Huxley Way",
        "pin_code": "237",
        "lat": "31.49737",
        "long": "35.11362",
        "street_name": "Mccormick"
    },
    {
        "id": 257,
        "address": "400 Florence Plaza",
        "pin_code": "23712",
        "lat": 19.604951,
        "long": -71.252526,
        "street_name": "Eggendart"
    },
    {
        "id": 176,
        "address": "0987 Carioca Circle",
        "pin_code": "23762",
        "lat": 50.4119089,
        "long": 16.5148115,
        "street_name": "Hooker"
    },
    {
        "id": 926,
        "address": "475 Jenna Pass",
        "pin_code": "23889",
        "lat": -34.4418692,
        "long": 19.4538014,
        "street_name": "Tennyson"
    },
    {
        "id": 422,
        "address": "03203 Bartillon Lane",
        "pin_code": "24",
        "lat": 29.9919028,
        "long": -90.0795843,
        "street_name": "Fairfield"
    },
    {
        "id": 419,
        "address": "339 Northport Lane",
        "pin_code": "244",
        "lat": 40.9034427,
        "long": -7.9953451,
        "street_name": "Vermont"
    },
    {
        "id": 808,
        "address": "76181 Rusk Pass",
        "pin_code": "244",
        "lat": 10.2600338,
        "long": 123.958258,
        "street_name": "Browning"
    },
    {
        "id": 556,
        "address": "55 Golf Street",
        "pin_code": "2446",
        "lat": 48.4902808,
        "long": 39.2712224,
        "street_name": "Fulton"
    },
    {
        "id": 795,
        "address": "457 Bay Lane",
        "pin_code": "245",
        "lat": 56.6810923,
        "long": 12.8148182,
        "street_name": "Tennessee"
    },
    {
        "id": 699,
        "address": "91504 Northview Drive",
        "pin_code": "248",
        "lat": 16.5154623,
        "long": 102.4151335,
        "street_name": "Lakewood"
    },
    {
        "id": 963,
        "address": "5 Schlimgen Terrace",
        "pin_code": "2486",
        "lat": 22.3750231,
        "long": 102.8112253,
        "street_name": "Sherman"
    },
    {
        "id": 265,
        "address": "0 Sachs Way",
        "pin_code": "25",
        "lat": -8.1545561,
        "long": 113.1981987,
        "street_name": "Valley Edge"
    },
    {
        "id": 324,
        "address": "8 Evergreen Road",
        "pin_code": "25",
        "lat": 53.1620102,
        "long": 16.6118082,
        "street_name": "Aberg"
    },
    {
        "id": 955,
        "address": "4 Lillian Avenue",
        "pin_code": "25",
        "lat": -2.8850378,
        "long": 32.2313539,
        "street_name": "Golf"
    },
    {
        "id": 286,
        "address": "1 Union Circle",
        "pin_code": "25207",
        "lat": -2.840682,
        "long": 132.7466993,
        "street_name": "Corry"
    },
    {
        "id": 907,
        "address": "3 Karstens Parkway",
        "pin_code": "25805",
        "lat": 40.1311441,
        "long": -8.3924705,
        "street_name": "Meadow Valley"
    },
    {
        "id": 203,
        "address": "70849 Ohio Lane",
        "pin_code": "26",
        "lat": 40.6318731,
        "long": 48.6363801,
        "street_name": "Randy"
    },
    {
        "id": 814,
        "address": "29909 Delladonna Way",
        "pin_code": "2637",
        "lat": 38.05106,
        "long": 114.463347,
        "street_name": "Buhler"
    },
    {
        "id": 135,
        "address": "400 Bellgrove Drive",
        "pin_code": "2647",
        "lat": 8.0566664,
        "long": 124.2338867,
        "street_name": "Harper"
    },
    {
        "id": 784,
        "address": "01533 Novick Trail",
        "pin_code": "26589",
        "lat": 14.6092588,
        "long": 120.9924256,
        "street_name": "Mariners Cove"
    },
    {
        "id": 967,
        "address": "7 Anzinger Street",
        "pin_code": "2665",
        "lat": 2.384507,
        "long": -75.542888,
        "street_name": "Dunning"
    },
    {
        "id": 252,
        "address": "19792 Summerview Avenue",
        "pin_code": "269",
        "lat": 53.3201497,
        "long": -6.2890702,
        "street_name": "Hazelcrest"
    },
    {
        "id": 94,
        "address": "48991 Namekagon Point",
        "pin_code": "27",
        "lat": 43.8533322,
        "long": 25.9522679,
        "street_name": "Fieldstone"
    },
    {
        "id": 436,
        "address": "413 Moose Point",
        "pin_code": "27251",
        "lat": 30.97213,
        "long": 119.310773,
        "street_name": "Rusk"
    },
    {
        "id": 783,
        "address": "61 International Avenue",
        "pin_code": "2773",
        "lat": 59.2963732,
        "long": 18.068622,
        "street_name": "Kim"
    },
    {
        "id": 643,
        "address": "61010 Fieldstone Circle",
        "pin_code": "28",
        "lat": 42.2020702,
        "long": 25.3248541,
        "street_name": "Sloan"
    },
    {
        "id": 712,
        "address": "31051 Pine View Street",
        "pin_code": "2820",
        "lat": 40.7182748,
        "long": -7.9809124,
        "street_name": "Eliot"
    },
    {
        "id": 771,
        "address": "014 Kennedy Junction",
        "pin_code": "283",
        "lat": -12.2369022,
        "long": -75.7455074,
        "street_name": "Tomscot"
    },
    {
        "id": 235,
        "address": "7207 Farragut Terrace",
        "pin_code": "28515",
        "lat": 32.187849,
        "long": 119.425836,
        "street_name": "Laurel"
    },
    {
        "id": 614,
        "address": "7036 Scofield Avenue",
        "pin_code": "2855",
        "lat": -21.2370782,
        "long": -45.7592067,
        "street_name": "Bunker Hill"
    },
    {
        "id": 209,
        "address": "363 Wayridge Point",
        "pin_code": "286",
        "lat": -7.3266223,
        "long": 108.2881709,
        "street_name": "Spenser"
    },
    {
        "id": 16,
        "address": "242 Park Meadow Plaza",
        "pin_code": "2873",
        "lat": 49.8338541,
        "long": 36.3240107,
        "street_name": "Sunfield"
    },
    {
        "id": 622,
        "address": "5814 Hanson Avenue",
        "pin_code": "28784",
        "lat": 56.1428751,
        "long": 40.3798477,
        "street_name": "Corscot"
    },
    {
        "id": 187,
        "address": "27525 Morrow Parkway",
        "pin_code": "28789",
        "lat": 14.6135888,
        "long": 121.0957927,
        "street_name": "Arapahoe"
    },
    {
        "id": 117,
        "address": "4 Fair Oaks Plaza",
        "pin_code": "29",
        "lat": 21.857958,
        "long": 111.982232,
        "street_name": "Almo"
    },
    {
        "id": 340,
        "address": "03269 Dixon Point",
        "pin_code": "29",
        "lat": 42.891255,
        "long": 129.508945,
        "street_name": "4th"
    },
    {
        "id": 399,
        "address": "28247 Sutteridge Pass",
        "pin_code": "29",
        "lat": 53.5325424,
        "long": 91.9206341,
        "street_name": "Surrey"
    },
    {
        "id": 590,
        "address": "87898 Hanover Road",
        "pin_code": "29",
        "lat": -38.9568843,
        "long": -68.1247915,
        "street_name": "Surrey"
    },
    {
        "id": 995,
        "address": "319 Hayes Avenue",
        "pin_code": "29",
        "lat": 24.560159,
        "long": 120.8214265,
        "street_name": "Transport"
    },
    {
        "id": 951,
        "address": "81 Monica Center",
        "pin_code": "290",
        "lat": 49.8853772,
        "long": 18.0624625,
        "street_name": "Helena"
    },
    {
        "id": 790,
        "address": "0 Gulseth Junction",
        "pin_code": "29103",
        "lat": 43.613063,
        "long": 7.056227,
        "street_name": "Warner"
    },
    {
        "id": 773,
        "address": "72053 Eggendart Avenue",
        "pin_code": "29266",
        "lat": 56.0978911,
        "long": 44.2206243,
        "street_name": "Ruskin"
    },
    {
        "id": 564,
        "address": "508 Trailsway Way",
        "pin_code": "293",
        "lat": 1.4745288,
        "long": 124.8441178,
        "street_name": "Northland"
    },
    {
        "id": 291,
        "address": "88714 Buell Drive",
        "pin_code": "2932",
        "lat": 37.2425649,
        "long": 111.8568586,
        "street_name": "Hayes"
    },
    {
        "id": 164,
        "address": "3 Farragut Court",
        "pin_code": "2941",
        "lat": "-8.0993",
        "long": "111.9161",
        "street_name": "Pleasure"
    },
    {
        "id": 120,
        "address": "98 4th Trail",
        "pin_code": "296",
        "lat": 29.8812968,
        "long": 111.4535119,
        "street_name": "Monica"
    },
    {
        "id": 404,
        "address": "1113 Aberg Road",
        "pin_code": "297",
        "lat": -7.3225,
        "long": 107.86,
        "street_name": "Northland"
    },
    {
        "id": 77,
        "address": "549 Meadow Ridge Street",
        "pin_code": "298",
        "lat": 20.7337728,
        "long": 105.7704551,
        "street_name": "Rowland"
    },
    {
        "id": 545,
        "address": "766 Burrows Crossing",
        "pin_code": "2993",
        "lat": 37.2425649,
        "long": 111.8568586,
        "street_name": "Victoria"
    },
    {
        "id": 33,
        "address": "5 Artisan Road",
        "pin_code": "3",
        "lat": -28.672732,
        "long": 20.4284431,
        "street_name": "Anniversary"
    },
    {
        "id": 35,
        "address": "53 Anderson Place",
        "pin_code": "3",
        "lat": "-6.6224",
        "long": "106.3869",
        "street_name": "Michigan"
    },
    {
        "id": 61,
        "address": "4 Ludington Pass",
        "pin_code": "3",
        "lat": 41.9924293,
        "long": 21.4298411,
        "street_name": "Steensland"
    },
    {
        "id": 64,
        "address": "834 Monument Terrace",
        "pin_code": "3",
        "lat": 51.5491768,
        "long": 7.2092264,
        "street_name": "Fuller"
    },
    {
        "id": 92,
        "address": "99612 Blaine Circle",
        "pin_code": "3",
        "lat": "-7.1008",
        "long": "108.2796",
        "street_name": "7th"
    },
    {
        "id": 210,
        "address": "59072 Kingsford Alley",
        "pin_code": "3",
        "lat": 51.3879616,
        "long": 34.9737843,
        "street_name": "Banding"
    },
    {
        "id": 224,
        "address": "61 Randy Terrace",
        "pin_code": "3",
        "lat": -26.5307472,
        "long": 29.0688345,
        "street_name": "Gulseth"
    },
    {
        "id": 277,
        "address": "540 Beilfuss Parkway",
        "pin_code": "3",
        "lat": 8.9517713,
        "long": -11.9783208,
        "street_name": "Orin"
    },
    {
        "id": 375,
        "address": "13 Amoth Street",
        "pin_code": "3",
        "lat": 42.424662,
        "long": 18.771234,
        "street_name": "Scofield"
    },
    {
        "id": 398,
        "address": "767 Monica Crossing",
        "pin_code": "3",
        "lat": 27.508898,
        "long": 119.582263,
        "street_name": "Basil"
    },
    {
        "id": 490,
        "address": "0418 Shelley Lane",
        "pin_code": "3",
        "lat": 41.9562157,
        "long": 21.7152906,
        "street_name": "Dixon"
    },
    {
        "id": 581,
        "address": "12 Hansons Place",
        "pin_code": "3",
        "lat": 40.5463267,
        "long": 22.2682863,
        "street_name": "Bashford"
    },
    {
        "id": 670,
        "address": "05361 Hintze Road",
        "pin_code": "3",
        "lat": 44.840524,
        "long": 82.353656,
        "street_name": "Lakeland"
    },
    {
        "id": 754,
        "address": "2173 Sugar Terrace",
        "pin_code": "3",
        "lat": 21.5192887,
        "long": 109.170221,
        "street_name": "Quincy"
    },
    {
        "id": 856,
        "address": "7426 Nobel Pass",
        "pin_code": "3",
        "lat": -21.7300823,
        "long": -48.0605108,
        "street_name": "Di Loreto"
    },
    {
        "id": 870,
        "address": "3113 Kropf Court",
        "pin_code": "3",
        "lat": 49.1025395,
        "long": 2.0362602,
        "street_name": "Carberry"
    },
    {
        "id": 899,
        "address": "32754 Dwight Road",
        "pin_code": "3",
        "lat": 16.0081344,
        "long": 120.2108551,
        "street_name": "Lunder"
    },
    {
        "id": 925,
        "address": "04317 Randy Center",
        "pin_code": "3",
        "lat": 47.6479788,
        "long": 36.164764,
        "street_name": "Oxford"
    },
    {
        "id": 987,
        "address": "3507 Old Gate Circle",
        "pin_code": "3",
        "lat": "-8.4399",
        "long": "115.3561",
        "street_name": "Oriole"
    },
    {
        "id": 245,
        "address": "57676 Bartelt Parkway",
        "pin_code": "30",
        "lat": 35.8138694,
        "long": 36.6077207,
        "street_name": "Ryan"
    },
    {
        "id": 315,
        "address": "53 Buena Vista Way",
        "pin_code": "30",
        "lat": -7.2623348,
        "long": 38.7368187,
        "street_name": "Spaight"
    },
    {
        "id": 470,
        "address": "07 Kennedy Center",
        "pin_code": "3035",
        "lat": 61.4692103,
        "long": 24.0399227,
        "street_name": "Ramsey"
    },
    {
        "id": 486,
        "address": "45 East Avenue",
        "pin_code": "30521",
        "lat": -7.9995755,
        "long": -35.2947008,
        "street_name": "Buena Vista"
    },
    {
        "id": 679,
        "address": "4 Loeprich Drive",
        "pin_code": "30703",
        "lat": 38.8742482,
        "long": -9.3993262,
        "street_name": "Algoma"
    },
    {
        "id": 854,
        "address": "5 Arrowood Center",
        "pin_code": "3071",
        "lat": 39.174484,
        "long": 117.164388,
        "street_name": "Linden"
    },
    {
        "id": 985,
        "address": "4061 Northport Place",
        "pin_code": "308",
        "lat": -6.8744345,
        "long": 111.5736596,
        "street_name": "Victoria"
    },
    {
        "id": 620,
        "address": "29 Redwing Avenue",
        "pin_code": "30831",
        "lat": 30.9579533,
        "long": 31.2282958,
        "street_name": "Melby"
    },
    {
        "id": 386,
        "address": "93 Warner Point",
        "pin_code": "3084",
        "lat": 25.6577006,
        "long": 57.7856677,
        "street_name": "Fair Oaks"
    },
    {
        "id": 860,
        "address": "9607 Anhalt Parkway",
        "pin_code": "3088",
        "lat": 16.0271237,
        "long": -3.9878427,
        "street_name": "Lukken"
    },
    {
        "id": 81,
        "address": "778 Donald Pass",
        "pin_code": "31",
        "lat": 49.8501369,
        "long": 21.894173,
        "street_name": "Paget"
    },
    {
        "id": 760,
        "address": "8 Lake View Way",
        "pin_code": "31066",
        "lat": -6.0189936,
        "long": -38.7368187,
        "street_name": "Monterey"
    },
    {
        "id": 441,
        "address": "785 Del Mar Park",
        "pin_code": "316",
        "lat": -6.3413734,
        "long": 106.5495683,
        "street_name": "Nobel"
    },
    {
        "id": 817,
        "address": "98485 Saint Paul Alley",
        "pin_code": "31654",
        "lat": "52.36389",
        "long": "30.39472",
        "street_name": "Northridge"
    },
    {
        "id": 65,
        "address": "9 Becker Way",
        "pin_code": "317",
        "lat": -18.1380146,
        "long": 30.147383,
        "street_name": "Division"
    },
    {
        "id": 975,
        "address": "007 Golf Plaza",
        "pin_code": "3179",
        "lat": 50.6731869,
        "long": 13.9418552,
        "street_name": "Grasskamp"
    },
    {
        "id": 211,
        "address": "2175 Golden Leaf Point",
        "pin_code": "31822",
        "lat": -4.4238447,
        "long": 26.6700737,
        "street_name": "Holmberg"
    },
    {
        "id": 693,
        "address": "71 Brown Center",
        "pin_code": "31880",
        "lat": 23.0685814,
        "long": 112.4496521,
        "street_name": "Lake View"
    },
    {
        "id": 651,
        "address": "9995 Forest Run Center",
        "pin_code": "32",
        "lat": 12.2200003,
        "long": 123.4869995,
        "street_name": "Nancy"
    },
    {
        "id": 748,
        "address": "27953 Vidon Road",
        "pin_code": "32",
        "lat": 10.305562,
        "long": 123.897862,
        "street_name": "Northview"
    },
    {
        "id": 239,
        "address": "07 Atwood Park",
        "pin_code": "320",
        "lat": 7.8129929,
        "long": -71.1745579,
        "street_name": "Autumn Leaf"
    },
    {
        "id": 550,
        "address": "7 5th Way",
        "pin_code": "321",
        "lat": -8.3408114,
        "long": 123.6231723,
        "street_name": "Acker"
    },
    {
        "id": 18,
        "address": "926 Brickson Park Street",
        "pin_code": "3228",
        "lat": 50.1383356,
        "long": 14.6705894,
        "street_name": "Grayhawk"
    },
    {
        "id": 958,
        "address": "6217 Alpine Lane",
        "pin_code": "324",
        "lat": 55.80192,
        "long": 42.7731878,
        "street_name": "Reinke"
    },
    {
        "id": 777,
        "address": "52007 Summit Park",
        "pin_code": "32468",
        "lat": -15.7451604,
        "long": -70.05478,
        "street_name": "Ludington"
    },
    {
        "id": 134,
        "address": "1904 Thackeray Trail",
        "pin_code": "328",
        "lat": 26.396895,
        "long": 118.449395,
        "street_name": "Ramsey"
    },
    {
        "id": 917,
        "address": "6 Katie Alley",
        "pin_code": "32891",
        "lat": -4.8696374,
        "long": 104.7112631,
        "street_name": "Birchwood"
    },
    {
        "id": 221,
        "address": "1694 Butterfield Junction",
        "pin_code": "33",
        "lat": "15.44485",
        "long": "120.86256",
        "street_name": "Northland"
    },
    {
        "id": 87,
        "address": "946 Schmedeman Way",
        "pin_code": "33257",
        "lat": 40.3705555,
        "long": 44.5964855,
        "street_name": "Kedzie"
    },
    {
        "id": 200,
        "address": "7289 Anhalt Crossing",
        "pin_code": "334",
        "lat": -8.7824511,
        "long": 35.8089055,
        "street_name": "Wayridge"
    },
    {
        "id": 483,
        "address": "48301 Moose Way",
        "pin_code": "3386",
        "lat": 20.775698,
        "long": -103.6951543,
        "street_name": "Forest Dale"
    },
    {
        "id": 704,
        "address": "49420 Cascade Road",
        "pin_code": "34",
        "lat": 51.2366183,
        "long": 20.760809,
        "street_name": "Nobel"
    },
    {
        "id": 465,
        "address": "5 Parkside Road",
        "pin_code": "34237",
        "lat": 47.801401,
        "long": 121.293284,
        "street_name": "Packers"
    },
    {
        "id": 192,
        "address": "3591 Parkside Hill",
        "pin_code": "345",
        "lat": -31.302987,
        "long": -64.28379,
        "street_name": "Esker"
    },
    {
        "id": 613,
        "address": "9 Loftsgordon Pass",
        "pin_code": "34750",
        "lat": 10.4818973,
        "long": 124.0211737,
        "street_name": "Pine View"
    },
    {
        "id": 729,
        "address": "5 Farragut Plaza",
        "pin_code": "348",
        "lat": 13.4570619,
        "long": 123.6791749,
        "street_name": "7th"
    },
    {
        "id": 138,
        "address": "05884 Veith Trail",
        "pin_code": "34950",
        "lat": 34.26645,
        "long": 108.960747,
        "street_name": "Pearson"
    },
    {
        "id": 454,
        "address": "690 Bluestem Avenue",
        "pin_code": "3498",
        "lat": -20.1914261,
        "long": 32.6333973,
        "street_name": "Old Gate"
    },
    {
        "id": 198,
        "address": "83 Prentice Hill",
        "pin_code": "35",
        "lat": 13.9702519,
        "long": 100.6035503,
        "street_name": "Caliangt"
    },
    {
        "id": 782,
        "address": "85167 Westend Pass",
        "pin_code": "35",
        "lat": 13.6256926,
        "long": 123.1848939,
        "street_name": "Meadow Valley"
    },
    {
        "id": 597,
        "address": "82155 Buena Vista Point",
        "pin_code": "35400",
        "lat": 30.206592,
        "long": 114.901412,
        "street_name": "Karstens"
    },
    {
        "id": 24,
        "address": "268 Clemons Point",
        "pin_code": "3550",
        "lat": 55.1536343,
        "long": 72.6937323,
        "street_name": "Northport"
    },
    {
        "id": 337,
        "address": "83 Derek Alley",
        "pin_code": "35753",
        "lat": 49.5555137,
        "long": 21.6832308,
        "street_name": "Monument"
    },
    {
        "id": 669,
        "address": "382 Pine View Terrace",
        "pin_code": "3587",
        "lat": 32.339402,
        "long": 35.396266,
        "street_name": "East"
    },
    {
        "id": 417,
        "address": "6730 Brickson Park Road",
        "pin_code": "35938",
        "lat": -34.604369,
        "long": -58.4838202,
        "street_name": "Crest Line"
    },
    {
        "id": 785,
        "address": "992 Bonner Street",
        "pin_code": "3599",
        "lat": 27.716826,
        "long": 112.007114,
        "street_name": "Dwight"
    },
    {
        "id": 449,
        "address": "28 Crest Line Park",
        "pin_code": "36",
        "lat": 39.133989,
        "long": -7.5865443,
        "street_name": "Mcguire"
    },
    {
        "id": 682,
        "address": "55185 Anhalt Trail",
        "pin_code": "36",
        "lat": 39.4286365,
        "long": 62.8617596,
        "street_name": "Leroy"
    },
    {
        "id": 909,
        "address": "9621 Bay Place",
        "pin_code": "36",
        "lat": 48.8489882,
        "long": 16.0910758,
        "street_name": "Kennedy"
    },
    {
        "id": 912,
        "address": "51631 Acker Alley",
        "pin_code": "36",
        "lat": 55.3605576,
        "long": 52.0111855,
        "street_name": "Anniversary"
    },
    {
        "id": 181,
        "address": "1302 Clarendon Place",
        "pin_code": "3618",
        "lat": 42.0615398,
        "long": 20.6511592,
        "street_name": "Judy"
    },
    {
        "id": 948,
        "address": "90680 Arrowood Pass",
        "pin_code": "3625",
        "lat": 44.362833,
        "long": 85.35698,
        "street_name": "Elka"
    },
    {
        "id": 78,
        "address": "93967 Bay Place",
        "pin_code": "364",
        "lat": 54.3231922,
        "long": 50.8118074,
        "street_name": "Weeping Birch"
    },
    {
        "id": 804,
        "address": "27 Union Way",
        "pin_code": "364",
        "lat": -7.594182,
        "long": -78.466042,
        "street_name": "Kinsman"
    },
    {
        "id": 353,
        "address": "74990 Katie Hill",
        "pin_code": "36501",
        "lat": -22.602558,
        "long": -43.9055155,
        "street_name": "Melrose"
    },
    {
        "id": 313,
        "address": "9 Carioca Center",
        "pin_code": "366",
        "lat": "52.63744",
        "long": "41.45968",
        "street_name": "Maryland"
    },
    {
        "id": 204,
        "address": "7 Amoth Hill",
        "pin_code": "369",
        "lat": 33.626149,
        "long": 114.69695,
        "street_name": "Hovde"
    },
    {
        "id": 302,
        "address": "35 Anzinger Park",
        "pin_code": "3695",
        "lat": -23.5198964,
        "long": -46.3408798,
        "street_name": "Marcy"
    },
    {
        "id": 595,
        "address": "52 Susan Place",
        "pin_code": "3698",
        "lat": 59.0524231,
        "long": 10.0275028,
        "street_name": "Bultman"
    },
    {
        "id": 41,
        "address": "1 Homewood Park",
        "pin_code": "37",
        "lat": 42.0264858,
        "long": 43.5525727,
        "street_name": "Hauk"
    },
    {
        "id": 523,
        "address": "8832 Twin Pines Terrace",
        "pin_code": "37",
        "lat": 0.4167052,
        "long": 109.0334318,
        "street_name": "Bluestem"
    },
    {
        "id": 811,
        "address": "33322 North Court",
        "pin_code": "37",
        "lat": 38.56077,
        "long": 114.250474,
        "street_name": "Division"
    },
    {
        "id": 892,
        "address": "446 Almo Pass",
        "pin_code": "37097",
        "lat": "-8.3932",
        "long": "114.8028",
        "street_name": "Hovde"
    },
    {
        "id": 874,
        "address": "3 Bluejay Drive",
        "pin_code": "3748",
        "lat": 41.2592586,
        "long": -8.3332193,
        "street_name": "Esker"
    },
    {
        "id": 935,
        "address": "7 Eagle Crest Pass",
        "pin_code": "3771",
        "lat": 32.2487226,
        "long": 54.0079341,
        "street_name": "Glendale"
    },
    {
        "id": 232,
        "address": "99 Johnson Junction",
        "pin_code": "378",
        "lat": 59.375207,
        "long": 17.0534187,
        "street_name": "8th"
    },
    {
        "id": 104,
        "address": "1006 Buhler Court",
        "pin_code": "38",
        "lat": 25.6765837,
        "long": -100.2602364,
        "street_name": "Warner"
    },
    {
        "id": 855,
        "address": "4 Elmside Avenue",
        "pin_code": "38",
        "lat": 23.9211737,
        "long": -106.8915948,
        "street_name": "Manitowish"
    },
    {
        "id": 191,
        "address": "2342 Pond Park",
        "pin_code": "3806",
        "lat": 39.2752729,
        "long": 118.4500421,
        "street_name": "Dawn"
    },
    {
        "id": 69,
        "address": "24 Wayridge Pass",
        "pin_code": "386",
        "lat": 37.507694,
        "long": 101.414709,
        "street_name": "Hintze"
    },
    {
        "id": 294,
        "address": "0858 Muir Center",
        "pin_code": "39",
        "lat": 14.8725628,
        "long": 38.8100855,
        "street_name": "Twin Pines"
    },
    {
        "id": 627,
        "address": "5 Lillian Street",
        "pin_code": "39",
        "lat": 47.6258589,
        "long": -1.8700485,
        "street_name": "Iowa"
    },
    {
        "id": 956,
        "address": "164 Clove Alley",
        "pin_code": "39",
        "lat": 34.3103535,
        "long": 133.8255351,
        "street_name": "Donald"
    },
    {
        "id": 132,
        "address": "7843 Schurz Parkway",
        "pin_code": "39117",
        "lat": 34.6741181,
        "long": -92.3517526,
        "street_name": "Kennedy"
    },
    {
        "id": 600,
        "address": "70 Meadow Valley Park",
        "pin_code": "3917",
        "lat": -29.7844393,
        "long": -55.7980283,
        "street_name": "Kedzie"
    },
    {
        "id": 390,
        "address": "130 Donald Circle",
        "pin_code": "39179",
        "lat": 31.416911,
        "long": 119.48421,
        "street_name": "Bashford"
    },
    {
        "id": 623,
        "address": "1 Milwaukee Drive",
        "pin_code": "392",
        "lat": -28.4134906,
        "long": -64.7629972,
        "street_name": "Nelson"
    },
    {
        "id": 42,
        "address": "817 Blackbird Point",
        "pin_code": "3943",
        "lat": 50.7842082,
        "long": -2.0098528,
        "street_name": "Donald"
    },
    {
        "id": 453,
        "address": "98 Northview Street",
        "pin_code": "397",
        "lat": 8.301719,
        "long": 123.80651,
        "street_name": "Nova"
    },
    {
        "id": 36,
        "address": "272 Superior Lane",
        "pin_code": "4",
        "lat": 30.898495,
        "long": 118.891482,
        "street_name": "Bayside"
    },
    {
        "id": 38,
        "address": "768 Commercial Avenue",
        "pin_code": "4",
        "lat": 5.9840985,
        "long": 116.0761121,
        "street_name": "Toban"
    },
    {
        "id": 109,
        "address": "36 Blaine Park",
        "pin_code": "4",
        "lat": 13.2857271,
        "long": -4.5908196,
        "street_name": "Burrows"
    },
    {
        "id": 208,
        "address": "19 Bayside Pass",
        "pin_code": "4",
        "lat": -34.6669709,
        "long": -58.4373491,
        "street_name": "Mitchell"
    },
    {
        "id": 231,
        "address": "198 Quincy Park",
        "pin_code": "4",
        "lat": 29.540245,
        "long": 111.253145,
        "street_name": "Schmedeman"
    },
    {
        "id": 253,
        "address": "40 Sugar Junction",
        "pin_code": "4",
        "lat": "-8.2672",
        "long": "113.7496",
        "street_name": "Anderson"
    },
    {
        "id": 331,
        "address": "52810 Harbort Terrace",
        "pin_code": "4",
        "lat": 41.6569962,
        "long": -8.4356533,
        "street_name": "Valley Edge"
    },
    {
        "id": 342,
        "address": "68 Village Green Hill",
        "pin_code": "4",
        "lat": 15.38666,
        "long": 104.558766,
        "street_name": "Stephen"
    },
    {
        "id": 373,
        "address": "13 Merchant Lane",
        "pin_code": "4",
        "lat": 22.801624,
        "long": 113.525165,
        "street_name": "Hazelcrest"
    },
    {
        "id": 376,
        "address": "53019 Monica Crossing",
        "pin_code": "4",
        "lat": 45.9557645,
        "long": 14.658899,
        "street_name": "Redwing"
    },
    {
        "id": 401,
        "address": "61 Redwing Street",
        "pin_code": "4",
        "lat": 50.7535287,
        "long": 23.763773,
        "street_name": "1st"
    },
    {
        "id": 452,
        "address": "3990 Lawn Junction",
        "pin_code": "4",
        "lat": 49.829369,
        "long": 19.6728793,
        "street_name": "Tomscot"
    },
    {
        "id": 500,
        "address": "01319 Bluejay Avenue",
        "pin_code": "4",
        "lat": -8.496803,
        "long": 115.148803,
        "street_name": "Marcy"
    },
    {
        "id": 710,
        "address": "32977 1st Point",
        "pin_code": "4",
        "lat": -7.2209016,
        "long": 106.962467,
        "street_name": "Doe Crossing"
    },
    {
        "id": 714,
        "address": "786 Darwin Hill",
        "pin_code": "4",
        "lat": 52.2828507,
        "long": 16.8550365,
        "street_name": "Nevada"
    },
    {
        "id": 715,
        "address": "30 Riverside Trail",
        "pin_code": "4",
        "lat": 56.0689945,
        "long": 13.2357106,
        "street_name": "Lillian"
    },
    {
        "id": 721,
        "address": "092 Blue Bill Park Way",
        "pin_code": "4",
        "lat": -15.7994139,
        "long": -47.9222179,
        "street_name": "Division"
    },
    {
        "id": 728,
        "address": "67 Ruskin Hill",
        "pin_code": "4",
        "lat": 21.1665519,
        "long": 104.9894851,
        "street_name": "Eliot"
    },
    {
        "id": 762,
        "address": "6 Parkside Pass",
        "pin_code": "4",
        "lat": 50.3047644,
        "long": 15.1696238,
        "street_name": "Mallard"
    },
    {
        "id": 916,
        "address": "8344 Reindahl Center",
        "pin_code": "4",
        "lat": -8.1370235,
        "long": 112.0148478,
        "street_name": "Farragut"
    },
    {
        "id": 722,
        "address": "171 Bunting Road",
        "pin_code": "40",
        "lat": 62.6291355,
        "long": 17.953415,
        "street_name": "Drewry"
    },
    {
        "id": 835,
        "address": "8326 Summerview Road",
        "pin_code": "400",
        "lat": -21.8898802,
        "long": -47.6455169,
        "street_name": "Sunnyside"
    },
    {
        "id": 758,
        "address": "4144 John Wall Circle",
        "pin_code": "40377",
        "lat": 25.748455,
        "long": 116.747009,
        "street_name": "Gulseth"
    },
    {
        "id": 456,
        "address": "5141 Pepper Wood Circle",
        "pin_code": "40588",
        "lat": 7.3832138,
        "long": 122.804355,
        "street_name": "Sachs"
    },
    {
        "id": 876,
        "address": "415 Stuart Lane",
        "pin_code": "406",
        "lat": -10.7507694,
        "long": -77.7595131,
        "street_name": "Carberry"
    },
    {
        "id": 285,
        "address": "8077 Fremont Circle",
        "pin_code": "4068",
        "lat": 19.782027,
        "long": -99.0598732,
        "street_name": "Corry"
    },
    {
        "id": 3,
        "address": "698 Main Alley",
        "pin_code": "4077",
        "lat": 44.8501354,
        "long": -0.5702805,
        "street_name": "Express"
    },
    {
        "id": 341,
        "address": "67 Swallow Road",
        "pin_code": "40870",
        "lat": 5.8607314,
        "long": -0.6676865,
        "street_name": "Haas"
    },
    {
        "id": 993,
        "address": "4 Morning Parkway",
        "pin_code": "40946",
        "lat": 34.7385063,
        "long": 135.5737861,
        "street_name": "Bartelt"
    },
    {
        "id": 425,
        "address": "69994 Lerdahl Junction",
        "pin_code": "41",
        "lat": 51.8135681,
        "long": 19.9684918,
        "street_name": "Ridgeview"
    },
    {
        "id": 384,
        "address": "893 Hazelcrest Plaza",
        "pin_code": "410",
        "lat": -2.9118209,
        "long": 119.3250347,
        "street_name": "Straubel"
    },
    {
        "id": 609,
        "address": "49 Northview Lane",
        "pin_code": "4101",
        "lat": 39.1372748,
        "long": 111.6717568,
        "street_name": "Moulton"
    },
    {
        "id": 8,
        "address": "8 Johnson Lane",
        "pin_code": "4115",
        "lat": 24.1477358,
        "long": 120.6736482,
        "street_name": "Di Loreto"
    },
    {
        "id": 692,
        "address": "55132 Canary Avenue",
        "pin_code": "41216",
        "lat": -11.7386611,
        "long": -75.5611485,
        "street_name": "Melrose"
    },
    {
        "id": 913,
        "address": "5891 Luster Way",
        "pin_code": "4125",
        "lat": -24.5253253,
        "long": -56.4076059,
        "street_name": "Rieder"
    },
    {
        "id": 194,
        "address": "4432 Little Fleur Drive",
        "pin_code": "414",
        "lat": 46.1649072,
        "long": 15.7509093,
        "street_name": "Jana"
    },
    {
        "id": 576,
        "address": "884 Canary Crossing",
        "pin_code": "4173",
        "lat": 17.9727813,
        "long": -92.9706816,
        "street_name": "Butterfield"
    },
    {
        "id": 261,
        "address": "25942 Fairview Point",
        "pin_code": "419",
        "lat": 50.3530658,
        "long": 36.8272273,
        "street_name": "Tomscot"
    },
    {
        "id": 220,
        "address": "1402 Butterfield Point",
        "pin_code": "42",
        "lat": 11.4998068,
        "long": 11.9336539,
        "street_name": "Warrior"
    },
    {
        "id": 847,
        "address": "86773 Oriole Junction",
        "pin_code": "42",
        "lat": 42.9177058,
        "long": 125.0428455,
        "street_name": "Mcguire"
    },
    {
        "id": 259,
        "address": "635 Heath Place",
        "pin_code": "4207",
        "lat": "16.8",
        "long": "120.8333",
        "street_name": "Rusk"
    },
    {
        "id": 21,
        "address": "4030 Kim Place",
        "pin_code": "422",
        "lat": 17.1413481,
        "long": 102.7824777,
        "street_name": "Eastlawn"
    },
    {
        "id": 654,
        "address": "4 Harper Plaza",
        "pin_code": "424",
        "lat": -1.0645451,
        "long": 103.9608091,
        "street_name": "Jenifer"
    },
    {
        "id": 968,
        "address": "86286 Maryland Plaza",
        "pin_code": "424",
        "lat": 54.026345,
        "long": -7.297914,
        "street_name": "Killdeer"
    },
    {
        "id": 30,
        "address": "990 Talisman Parkway",
        "pin_code": "425",
        "lat": 43.1463186,
        "long": 45.9011736,
        "street_name": "Anhalt"
    },
    {
        "id": 338,
        "address": "0 Hovde Point",
        "pin_code": "426",
        "lat": 38.9951183,
        "long": 139.9228567,
        "street_name": "Amoth"
    },
    {
        "id": 671,
        "address": "9 Golden Leaf Terrace",
        "pin_code": "4264",
        "lat": -8.5300312,
        "long": 116.1950214,
        "street_name": "Evergreen"
    },
    {
        "id": 174,
        "address": "581 Shopko Point",
        "pin_code": "428",
        "lat": 49.8922979,
        "long": 19.621588,
        "street_name": "Mariners Cove"
    },
    {
        "id": 339,
        "address": "85 Dawn Road",
        "pin_code": "428",
        "lat": 16.7551121,
        "long": 121.7483586,
        "street_name": "Stephen"
    },
    {
        "id": 865,
        "address": "0106 Spohn Avenue",
        "pin_code": "428",
        "lat": 40.2269318,
        "long": -8.5714359,
        "street_name": "Hoard"
    },
    {
        "id": 71,
        "address": "087 Onsgard Plaza",
        "pin_code": "42809",
        "lat": 32.192361,
        "long": 35.159475,
        "street_name": "Kipling"
    },
    {
        "id": 68,
        "address": "7 Barby Court",
        "pin_code": "43",
        "lat": 22.3723336,
        "long": -80.1484407,
        "street_name": "Magdeline"
    },
    {
        "id": 445,
        "address": "549 School Parkway",
        "pin_code": "43",
        "lat": -18.3958665,
        "long": -40.1862129,
        "street_name": "Spohn"
    },
    {
        "id": 882,
        "address": "6305 Bay Plaza",
        "pin_code": "43",
        "lat": 8.679187,
        "long": 124.972309,
        "street_name": "Birchwood"
    },
    {
        "id": 103,
        "address": "68779 Stoughton Road",
        "pin_code": "4316",
        "lat": 12.9881784,
        "long": 108.8848569,
        "street_name": "Portage"
    },
    {
        "id": 278,
        "address": "3807 Tony Circle",
        "pin_code": "4338",
        "lat": 34.620202,
        "long": 112.453926,
        "street_name": "Lillian"
    },
    {
        "id": 552,
        "address": "9103 Veith Terrace",
        "pin_code": "43448",
        "lat": -28.7653754,
        "long": 28.2468148,
        "street_name": "Kinsman"
    },
    {
        "id": 455,
        "address": "221 Kropf Junction",
        "pin_code": "4385",
        "lat": 18.2855395,
        "long": 99.5127895,
        "street_name": "Shasta"
    },
    {
        "id": 241,
        "address": "084 Prairieview Plaza",
        "pin_code": "44",
        "lat": 31.4374773,
        "long": -7.4060306,
        "street_name": "Bonner"
    },
    {
        "id": 296,
        "address": "73319 Cardinal Road",
        "pin_code": "4411",
        "lat": 23.342031,
        "long": 113.106055,
        "street_name": "Paget"
    },
    {
        "id": 158,
        "address": "4040 3rd Court",
        "pin_code": "4431",
        "lat": 48.8753655,
        "long": 2.3405004,
        "street_name": "Jackson"
    },
    {
        "id": 674,
        "address": "7 Shopko Crossing",
        "pin_code": "4446",
        "lat": 30.3364517,
        "long": 71.756132,
        "street_name": "Dixon"
    },
    {
        "id": 555,
        "address": "8 John Wall Plaza",
        "pin_code": "4463",
        "lat": 53.4917756,
        "long": 29.3327582,
        "street_name": "Menomonie"
    },
    {
        "id": 99,
        "address": "71 Sachs Trail",
        "pin_code": "44766",
        "lat": -0.789275,
        "long": 113.921327,
        "street_name": "Clarendon"
    },
    {
        "id": 505,
        "address": "1020 Main Street",
        "pin_code": "44844",
        "lat": -7.0051453,
        "long": 110.4381254,
        "street_name": "Northview"
    },
    {
        "id": 63,
        "address": "9 Dennis Center",
        "pin_code": "45",
        "lat": 38.8827087,
        "long": -77.0163235,
        "street_name": "Northfield"
    },
    {
        "id": 73,
        "address": "20304 Warrior Road",
        "pin_code": "45",
        "lat": -7.6150611,
        "long": 108.4988269,
        "street_name": "Dixon"
    },
    {
        "id": 594,
        "address": "7 Maywood Center",
        "pin_code": "45",
        "lat": 30.7720333,
        "long": -9.460322,
        "street_name": "Northport"
    },
    {
        "id": 612,
        "address": "6 Sherman Terrace",
        "pin_code": "45",
        "lat": 43.1097139,
        "long": 17.7192104,
        "street_name": "Scofield"
    },
    {
        "id": 624,
        "address": "1 Thackeray Drive",
        "pin_code": "45",
        "lat": 60.6739776,
        "long": 17.1574569,
        "street_name": "Roth"
    },
    {
        "id": 787,
        "address": "1 Gina Pass",
        "pin_code": "45458",
        "lat": 41.4000931,
        "long": -8.1459112,
        "street_name": "Dakota"
    },
    {
        "id": 119,
        "address": "84 Canary Drive",
        "pin_code": "45585",
        "lat": 26.512298,
        "long": 119.065936,
        "street_name": "Forest Run"
    },
    {
        "id": 959,
        "address": "38395 Lakewood Gardens Place",
        "pin_code": "457",
        "lat": "50.85253",
        "long": "24.32364",
        "street_name": "Dottie"
    },
    {
        "id": 168,
        "address": "16056 Stephen Trail",
        "pin_code": "458",
        "lat": "34.92357",
        "long": "36.48598",
        "street_name": "Hayes"
    },
    {
        "id": 932,
        "address": "9 Warbler Plaza",
        "pin_code": "459",
        "lat": 41.2699615,
        "long": 26.38509,
        "street_name": "Pierstorff"
    },
    {
        "id": 980,
        "address": "424 Boyd Trail",
        "pin_code": "4609",
        "lat": 28.524376,
        "long": 113.233807,
        "street_name": "Glendale"
    },
    {
        "id": 307,
        "address": "999 Menomonie Parkway",
        "pin_code": "4611",
        "lat": 54.0542238,
        "long": -2.0215836,
        "street_name": "Westport"
    },
    {
        "id": 420,
        "address": "966 Mosinee Place",
        "pin_code": "464",
        "lat": 30.760008,
        "long": 120.753163,
        "street_name": "Summer Ridge"
    },
    {
        "id": 56,
        "address": "296 Eastlawn Parkway",
        "pin_code": "4644",
        "lat": 33.86,
        "long": 115.484454,
        "street_name": "Declaration"
    },
    {
        "id": 283,
        "address": "415 5th Circle",
        "pin_code": "47",
        "lat": 42.699311,
        "long": 123.014433,
        "street_name": "Elka"
    },
    {
        "id": 557,
        "address": "271 Autumn Leaf Crossing",
        "pin_code": "47",
        "lat": 38.582529,
        "long": 21.4467686,
        "street_name": "Grayhawk"
    },
    {
        "id": 423,
        "address": "128 Arkansas Terrace",
        "pin_code": "471",
        "lat": 53.1121503,
        "long": 48.4211315,
        "street_name": "Cambridge"
    },
    {
        "id": 202,
        "address": "89 Fieldstone Lane",
        "pin_code": "477",
        "lat": -13.7543026,
        "long": -74.0667302,
        "street_name": "Vidon"
    },
    {
        "id": 640,
        "address": "9 8th Center",
        "pin_code": "4770",
        "lat": -6.3904294,
        "long": 107.1733193,
        "street_name": "Hagan"
    },
    {
        "id": 435,
        "address": "6696 Schiller Center",
        "pin_code": "47898",
        "lat": 7.5823695,
        "long": 125.8470159,
        "street_name": "Prentice"
    },
    {
        "id": 206,
        "address": "06114 Calypso Pass",
        "pin_code": "48",
        "lat": -6.9620686,
        "long": 108.4854717,
        "street_name": "Lien"
    },
    {
        "id": 392,
        "address": "57 Columbus Road",
        "pin_code": "48",
        "lat": 55.9023639,
        "long": 13.6706414,
        "street_name": "Farwell"
    },
    {
        "id": 492,
        "address": "312 Onsgard Center",
        "pin_code": "48",
        "lat": "-6.9158",
        "long": "112.5541",
        "street_name": "Hansons"
    },
    {
        "id": 515,
        "address": "0755 Mcguire Street",
        "pin_code": "48",
        "lat": -8.0075658,
        "long": -35.0221895,
        "street_name": "Hanover"
    },
    {
        "id": 718,
        "address": "469 Sundown Way",
        "pin_code": "480",
        "lat": 56.2960315,
        "long": 14.8591964,
        "street_name": "Crowley"
    },
    {
        "id": 136,
        "address": "986 Eastwood Alley",
        "pin_code": "483",
        "lat": 39.3552067,
        "long": 21.538589,
        "street_name": "Morningstar"
    },
    {
        "id": 394,
        "address": "38352 Anhalt Avenue",
        "pin_code": "483",
        "lat": 51.3830331,
        "long": 20.0136604,
        "street_name": "Vidon"
    },
    {
        "id": 650,
        "address": "03046 Almo Pass",
        "pin_code": "4832",
        "lat": -21.0794915,
        "long": -45.0933497,
        "street_name": "Gateway"
    },
    {
        "id": 214,
        "address": "59522 Wayridge Street",
        "pin_code": "48382",
        "lat": -11.8256582,
        "long": 43.4536443,
        "street_name": "Roxbury"
    },
    {
        "id": 256,
        "address": "5070 Center Trail",
        "pin_code": "4844",
        "lat": -7.2331881,
        "long": 112.5692082,
        "street_name": "Golf View"
    },
    {
        "id": 701,
        "address": "93 Vernon Place",
        "pin_code": "485",
        "lat": 54.6744703,
        "long": 20.1340172,
        "street_name": "Dottie"
    },
    {
        "id": 848,
        "address": "74 Union Way",
        "pin_code": "48727",
        "lat": 36.7435003,
        "long": 10.2319757,
        "street_name": "Coleman"
    },
    {
        "id": 270,
        "address": "096 Katie Circle",
        "pin_code": "48945",
        "lat": -34.6234902,
        "long": -58.4955016,
        "street_name": "Coolidge"
    },
    {
        "id": 965,
        "address": "4 Bobwhite Pass",
        "pin_code": "48960",
        "lat": 37.507694,
        "long": 101.414709,
        "street_name": "Dawn"
    },
    {
        "id": 28,
        "address": "847 Glacier Hill Circle",
        "pin_code": "49",
        "lat": 39.7028389,
        "long": 141.1515091,
        "street_name": "Warrior"
    },
    {
        "id": 57,
        "address": "18819 Hintze Street",
        "pin_code": "49",
        "lat": 52.44387,
        "long": 15.11697,
        "street_name": "Jenifer"
    },
    {
        "id": 431,
        "address": "145 Pond Point",
        "pin_code": "49",
        "lat": 2.777781,
        "long": -75.2594359,
        "street_name": "Dixon"
    },
    {
        "id": 608,
        "address": "1291 Crescent Oaks Point",
        "pin_code": "49",
        "lat": -27.4893816,
        "long": -58.8495697,
        "street_name": "Lotheville"
    },
    {
        "id": 734,
        "address": "8 Bellgrove Street",
        "pin_code": "4913",
        "lat": 13.9686682,
        "long": 120.7285858,
        "street_name": "Algoma"
    },
    {
        "id": 443,
        "address": "91147 Moose Junction",
        "pin_code": "49259",
        "lat": 42.43848,
        "long": 70.4759186,
        "street_name": "Randy"
    },
    {
        "id": 10,
        "address": "5 Lake View Court",
        "pin_code": "4951",
        "lat": 54.6437754,
        "long": 21.780179,
        "street_name": "Hayes"
    },
    {
        "id": 160,
        "address": "7682 Walton Avenue",
        "pin_code": "496",
        "lat": 35.663752,
        "long": 103.389346,
        "street_name": "Forest Dale"
    },
    {
        "id": 563,
        "address": "368 Fuller Crossing",
        "pin_code": "49759",
        "lat": 47.3036891,
        "long": 2.6981496,
        "street_name": "Huxley"
    },
    {
        "id": 986,
        "address": "755 Hansons Pass",
        "pin_code": "498",
        "lat": 31.9852068,
        "long": 119.5719162,
        "street_name": "Gina"
    },
    {
        "id": 543,
        "address": "747 Old Shore Point",
        "pin_code": "499",
        "lat": 30.077787,
        "long": 108.892527,
        "street_name": "Badeau"
    },
    {
        "id": 82,
        "address": "5 Northfield Court",
        "pin_code": "4998",
        "lat": -12.5502705,
        "long": 28.2409671,
        "street_name": "South"
    },
    {
        "id": 17,
        "address": "9532 Monica Alley",
        "pin_code": "5",
        "lat": 45.9501067,
        "long": 17.2326521,
        "street_name": "Corry"
    },
    {
        "id": 19,
        "address": "9062 Reindahl Alley",
        "pin_code": "5",
        "lat": 15.6122706,
        "long": -86.0784459,
        "street_name": "Dryden"
    },
    {
        "id": 108,
        "address": "13120 Garrison Point",
        "pin_code": "5",
        "lat": 38.05106,
        "long": 114.463347,
        "street_name": "Old Shore"
    },
    {
        "id": 141,
        "address": "73090 Milwaukee Trail",
        "pin_code": "5",
        "lat": "5.21667",
        "long": "96.28333",
        "street_name": "Northfield"
    },
    {
        "id": 193,
        "address": "89528 Carioca Hill",
        "pin_code": "5",
        "lat": 45.7784442,
        "long": -71.9229466,
        "street_name": "Sommers"
    },
    {
        "id": 334,
        "address": "54 Northwestern Terrace",
        "pin_code": "5",
        "lat": 6.9956405,
        "long": 122.035862,
        "street_name": "Fisk"
    },
    {
        "id": 381,
        "address": "379 Stang Park",
        "pin_code": "5",
        "lat": -9.483333,
        "long": -77.866667,
        "street_name": "Sachs"
    },
    {
        "id": 461,
        "address": "1339 Cody Place",
        "pin_code": "5",
        "lat": -7.4468,
        "long": 108.00217,
        "street_name": "Spenser"
    },
    {
        "id": 546,
        "address": "58747 Mendota Park",
        "pin_code": "5",
        "lat": 64.3196092,
        "long": 29.0932259,
        "street_name": "Kim"
    },
    {
        "id": 568,
        "address": "17091 Del Mar Alley",
        "pin_code": "5",
        "lat": -6.7543488,
        "long": 108.4602464,
        "street_name": "Washington"
    },
    {
        "id": 631,
        "address": "32400 Valley Edge Road",
        "pin_code": "5",
        "lat": 23.354091,
        "long": 116.681972,
        "street_name": "Fieldstone"
    },
    {
        "id": 652,
        "address": "982 Park Meadow Way",
        "pin_code": "5",
        "lat": 30.6569282,
        "long": 104.0779484,
        "street_name": "Carberry"
    },
    {
        "id": 660,
        "address": "6428 Northridge Alley",
        "pin_code": "5",
        "lat": 35.008579,
        "long": 37.22551,
        "street_name": "Ryan"
    },
    {
        "id": 706,
        "address": "834 Independence Alley",
        "pin_code": "5",
        "lat": 49.980217,
        "long": 24.0778329,
        "street_name": "Hanson"
    },
    {
        "id": 752,
        "address": "32537 Summerview Point",
        "pin_code": "5",
        "lat": 17.387112,
        "long": 102.7755279,
        "street_name": "Longview"
    },
    {
        "id": 931,
        "address": "37 Roxbury Crossing",
        "pin_code": "5",
        "lat": 29.623319,
        "long": 100.222137,
        "street_name": "Manley"
    },
    {
        "id": 938,
        "address": "39846 Sycamore Point",
        "pin_code": "5",
        "lat": 59.9715263,
        "long": 18.6031762,
        "street_name": "Surrey"
    },
    {
        "id": 952,
        "address": "457 Gateway Parkway",
        "pin_code": "5",
        "lat": 49.5290848,
        "long": 26.1416979,
        "street_name": "Pierstorff"
    },
    {
        "id": 996,
        "address": "6515 Sugar Trail",
        "pin_code": "5",
        "lat": -3.9052525,
        "long": 32.9381321,
        "street_name": "Bayside"
    },
    {
        "id": 637,
        "address": "6667 Vahlen Terrace",
        "pin_code": "50",
        "lat": 56.0467,
        "long": 59.6086,
        "street_name": "Anzinger"
    },
    {
        "id": 299,
        "address": "226 Mandrake Hill",
        "pin_code": "500",
        "lat": 19.7413519,
        "long": 96.2004383,
        "street_name": "Carioca"
    },
    {
        "id": 678,
        "address": "7 Jay Terrace",
        "pin_code": "50065",
        "lat": 23.9179637,
        "long": 120.6775054,
        "street_name": "Haas"
    },
    {
        "id": 378,
        "address": "70 Harbort Court",
        "pin_code": "50192",
        "lat": -22.7106685,
        "long": -43.5522256,
        "street_name": "Oxford"
    },
    {
        "id": 476,
        "address": "3 Lunder Way",
        "pin_code": "5029",
        "lat": 21.027964,
        "long": 105.8510132,
        "street_name": "Donald"
    },
    {
        "id": 279,
        "address": "2 Becker Lane",
        "pin_code": "5037",
        "lat": 53.2770501,
        "long": 45.0300183,
        "street_name": "Marcy"
    },
    {
        "id": 686,
        "address": "84226 Prairie Rose Parkway",
        "pin_code": "50387",
        "lat": 21.857958,
        "long": 111.982232,
        "street_name": "Blaine"
    },
    {
        "id": 531,
        "address": "9407 Pankratz Way",
        "pin_code": "505",
        "lat": 43.048118,
        "long": 124.304717,
        "street_name": "Oak Valley"
    },
    {
        "id": 246,
        "address": "45263 Buena Vista Plaza",
        "pin_code": "5065",
        "lat": 23.025305,
        "long": 112.457981,
        "street_name": "Coolidge"
    },
    {
        "id": 439,
        "address": "81403 Mosinee Junction",
        "pin_code": "511",
        "lat": 5.4197312,
        "long": 100.3170452,
        "street_name": "Killdeer"
    },
    {
        "id": 635,
        "address": "89 Esch Pass",
        "pin_code": "512",
        "lat": 51.0003903,
        "long": 3.7139045,
        "street_name": "Veith"
    },
    {
        "id": 163,
        "address": "9459 4th Place",
        "pin_code": "5149",
        "lat": 13.7399629,
        "long": 108.0954351,
        "street_name": "Lyons"
    },
    {
        "id": 473,
        "address": "4679 Bonner Way",
        "pin_code": "51843",
        "lat": 13.0742447,
        "long": 101.0084698,
        "street_name": "Memorial"
    },
    {
        "id": 11,
        "address": "38 Utah Way",
        "pin_code": "519",
        "lat": 59.5336088,
        "long": 18.0725818,
        "street_name": "Ridgeview"
    },
    {
        "id": 266,
        "address": "9617 Spaight Drive",
        "pin_code": "51904",
        "lat": -17.8938032,
        "long": -39.6930912,
        "street_name": "Starling"
    },
    {
        "id": 827,
        "address": "651 Barby Circle",
        "pin_code": "52",
        "lat": 23.124134,
        "long": 115.138892,
        "street_name": "Lakewood Gardens"
    },
    {
        "id": 633,
        "address": "2 Crest Line Junction",
        "pin_code": "5206",
        "lat": 27.6791846,
        "long": 30.7738154,
        "street_name": "Express"
    },
    {
        "id": 646,
        "address": "63 Little Fleur Road",
        "pin_code": "527",
        "lat": 18.745638,
        "long": 100.7953911,
        "street_name": "Anthes"
    },
    {
        "id": 300,
        "address": "90021 Straubel Plaza",
        "pin_code": "53201",
        "lat": 52.7643345,
        "long": 87.8895009,
        "street_name": "Namekagon"
    },
    {
        "id": 561,
        "address": "50176 Brickson Park Way",
        "pin_code": "5323",
        "lat": -2.7129174,
        "long": 102.8917556,
        "street_name": "Raven"
    },
    {
        "id": 356,
        "address": "6 Dahle Lane",
        "pin_code": "5345",
        "lat": 41.0606685,
        "long": 24.0475546,
        "street_name": "Schlimgen"
    },
    {
        "id": 775,
        "address": "523 Cody Center",
        "pin_code": "5347",
        "lat": 56.166667,
        "long": 107.433333,
        "street_name": "Manitowish"
    },
    {
        "id": 659,
        "address": "3 Algoma Alley",
        "pin_code": "535",
        "lat": -12.257739,
        "long": 43.6723087,
        "street_name": "Hovde"
    },
    {
        "id": 815,
        "address": "81 Algoma Drive",
        "pin_code": "5353",
        "lat": 28.498317,
        "long": 112.523522,
        "street_name": "Butterfield"
    },
    {
        "id": 519,
        "address": "9 Schiller Drive",
        "pin_code": "537",
        "lat": 40.0725348,
        "long": 44.3051313,
        "street_name": "Leroy"
    },
    {
        "id": 537,
        "address": "803 Basil Plaza",
        "pin_code": "537",
        "lat": 46.8118134,
        "long": -0.5451553,
        "street_name": "Judy"
    },
    {
        "id": 260,
        "address": "7904 Golden Leaf Place",
        "pin_code": "53704",
        "lat": -20.2029069,
        "long": 57.7289398,
        "street_name": "Morningstar"
    },
    {
        "id": 761,
        "address": "2 Colorado Street",
        "pin_code": "53934",
        "lat": 23.0303395,
        "long": -81.5322149,
        "street_name": "Quincy"
    },
    {
        "id": 558,
        "address": "41359 Farwell Terrace",
        "pin_code": "54",
        "lat": -1.2174907,
        "long": 10.5886928,
        "street_name": "Canary"
    },
    {
        "id": 759,
        "address": "873 Welch Circle",
        "pin_code": "54",
        "lat": 34.852159,
        "long": 117.564229,
        "street_name": "Mesta"
    },
    {
        "id": 72,
        "address": "5291 Calypso Pass",
        "pin_code": "540",
        "lat": 38.299031,
        "long": -8.4830925,
        "street_name": "Bartelt"
    },
    {
        "id": 95,
        "address": "07 Kensington Junction",
        "pin_code": "54616",
        "lat": "-8.5381",
        "long": "123.51",
        "street_name": "Monument"
    },
    {
        "id": 85,
        "address": "32073 Larry Way",
        "pin_code": "55",
        "lat": 13.8801742,
        "long": 121.2125126,
        "street_name": "Thierer"
    },
    {
        "id": 344,
        "address": "6 Golf View Hill",
        "pin_code": "550",
        "lat": 35.907757,
        "long": 127.766922,
        "street_name": "Valley Edge"
    },
    {
        "id": 100,
        "address": "9017 David Terrace",
        "pin_code": "55205",
        "lat": 32.460037,
        "long": 112.228897,
        "street_name": "Judy"
    },
    {
        "id": 182,
        "address": "3 Harper Pass",
        "pin_code": "55300",
        "lat": -16.0010539,
        "long": -55.0493375,
        "street_name": "Fairview"
    },
    {
        "id": 414,
        "address": "1640 Spohn Alley",
        "pin_code": "5537",
        "lat": -24.5113085,
        "long": -48.8447394,
        "street_name": "Delaware"
    },
    {
        "id": 723,
        "address": "1497 Jenna Park",
        "pin_code": "5557",
        "lat": -36.999012,
        "long": 174.876524,
        "street_name": "Arkansas"
    },
    {
        "id": 990,
        "address": "1 Carey Center",
        "pin_code": "5563",
        "lat": -5.9345929,
        "long": -79.222328,
        "street_name": "Rieder"
    },
    {
        "id": 607,
        "address": "23282 Doe Crossing Lane",
        "pin_code": "5596",
        "lat": -4.8216406,
        "long": 104.8337879,
        "street_name": "Esker"
    },
    {
        "id": 565,
        "address": "675 Thompson Pass",
        "pin_code": "56",
        "lat": 34.0643502,
        "long": -117.2847875,
        "street_name": "Columbus"
    },
    {
        "id": 645,
        "address": "3 Iowa Lane",
        "pin_code": "56",
        "lat": 30.645019,
        "long": 114.282194,
        "street_name": "Hollow Ridge"
    },
    {
        "id": 593,
        "address": "89 Dapin Junction",
        "pin_code": "560",
        "lat": 48.8693156,
        "long": 2.3501981,
        "street_name": "Sullivan"
    },
    {
        "id": 345,
        "address": "19 Crowley Center",
        "pin_code": "5616",
        "lat": 26.3448341,
        "long": 127.833984,
        "street_name": "Colorado"
    },
    {
        "id": 661,
        "address": "1 Green Place",
        "pin_code": "56192",
        "lat": 32.244032,
        "long": 35.064616,
        "street_name": "Grayhawk"
    },
    {
        "id": 528,
        "address": "44 Anthes Trail",
        "pin_code": "5620",
        "lat": -22.2496709,
        "long": -43.8290988,
        "street_name": "7th"
    },
    {
        "id": 437,
        "address": "1 Doe Crossing Terrace",
        "pin_code": "56317",
        "lat": 22.5805725,
        "long": 113.8853373,
        "street_name": "Cottonwood"
    },
    {
        "id": 393,
        "address": "6 Luster Trail",
        "pin_code": "569",
        "lat": 14.5324564,
        "long": -91.512542,
        "street_name": "Caliangt"
    },
    {
        "id": 106,
        "address": "722 Menomonie Parkway",
        "pin_code": "57051",
        "lat": 8.8105088,
        "long": -75.632447,
        "street_name": "Eastwood"
    },
    {
        "id": 867,
        "address": "95540 Troy Plaza",
        "pin_code": "5723",
        "lat": -6.3874037,
        "long": 106.8620891,
        "street_name": "Sommers"
    },
    {
        "id": 763,
        "address": "51 Nevada Junction",
        "pin_code": "5767",
        "lat": -16.2513167,
        "long": -47.952747,
        "street_name": "Waxwing"
    },
    {
        "id": 133,
        "address": "54 Dorton Hill",
        "pin_code": "5781",
        "lat": 47.1427431,
        "long": -122.4407344,
        "street_name": "Magdeline"
    },
    {
        "id": 7,
        "address": "2 Red Cloud Avenue",
        "pin_code": "58",
        "lat": 40.6400629,
        "long": 22.9444191,
        "street_name": "Kinsman"
    },
    {
        "id": 297,
        "address": "95 Del Mar Pass",
        "pin_code": "58",
        "lat": 64.128759,
        "long": 29.5197329,
        "street_name": "Schlimgen"
    },
    {
        "id": 943,
        "address": "47355 North Pass",
        "pin_code": "58",
        "lat": 46.562247,
        "long": 125.1353261,
        "street_name": "Orin"
    },
    {
        "id": 312,
        "address": "625 Monica Court",
        "pin_code": "58325",
        "lat": 42.0223424,
        "long": 43.1936525,
        "street_name": "Fisk"
    },
    {
        "id": 792,
        "address": "69 Bayside Place",
        "pin_code": "58493",
        "lat": 28.572029,
        "long": 109.482078,
        "street_name": "Butternut"
    },
    {
        "id": 309,
        "address": "44419 Moland Alley",
        "pin_code": "58511",
        "lat": -14.05,
        "long": -74.966667,
        "street_name": "Basil"
    },
    {
        "id": 928,
        "address": "4 Mallard Street",
        "pin_code": "58571",
        "lat": 55.816131,
        "long": 37.8768991,
        "street_name": "Dawn"
    },
    {
        "id": 305,
        "address": "0 Shoshone Way",
        "pin_code": "5878",
        "lat": 49.1169513,
        "long": 101.449837,
        "street_name": "Union"
    },
    {
        "id": 195,
        "address": "1 Tennyson Street",
        "pin_code": "59",
        "lat": 41.664757,
        "long": 123.344062,
        "street_name": "Sheridan"
    },
    {
        "id": 978,
        "address": "4 Vera Avenue",
        "pin_code": "59",
        "lat": 36.1069958,
        "long": -79.8522564,
        "street_name": "Red Cloud"
    },
    {
        "id": 833,
        "address": "063 Chive Avenue",
        "pin_code": "5923",
        "lat": 40.2676183,
        "long": 44.6810797,
        "street_name": "Chive"
    },
    {
        "id": 67,
        "address": "93 Jenifer Plaza",
        "pin_code": "593",
        "lat": 53.1212988,
        "long": 35.3879453,
        "street_name": "Jenna"
    },
    {
        "id": 347,
        "address": "8183 Comanche Hill",
        "pin_code": "596",
        "lat": 35.8515197,
        "long": 136.1957329,
        "street_name": "Vahlen"
    },
    {
        "id": 798,
        "address": "590 Maryland Crossing",
        "pin_code": "59643",
        "lat": 40.68,
        "long": -73.95,
        "street_name": "Kedzie"
    },
    {
        "id": 893,
        "address": "4 Miller Lane",
        "pin_code": "5975",
        "lat": -17.623,
        "long": -149.6045718,
        "street_name": "Lindbergh"
    },
    {
        "id": 53,
        "address": "481 Ryan Street",
        "pin_code": "598",
        "lat": 34.540852,
        "long": 109.44096,
        "street_name": "Myrtle"
    },
    {
        "id": 403,
        "address": "574 Stuart Hill",
        "pin_code": "5994",
        "lat": 34.8412176,
        "long": 32.4297369,
        "street_name": "Warrior"
    },
    {
        "id": 74,
        "address": "491 Swallow Park",
        "pin_code": "6",
        "lat": -8.0650276,
        "long": 113.8011498,
        "street_name": "Sunfield"
    },
    {
        "id": 303,
        "address": "62667 Bartillon Parkway",
        "pin_code": "6",
        "lat": 23.113478,
        "long": 113.417068,
        "street_name": "Bobwhite"
    },
    {
        "id": 330,
        "address": "80 Dahle Terrace",
        "pin_code": "6",
        "lat": 46.1357218,
        "long": 14.7444352,
        "street_name": "Arkansas"
    },
    {
        "id": 428,
        "address": "9349 Ridgeview Avenue",
        "pin_code": "6",
        "lat": "35.99417",
        "long": "129.345",
        "street_name": "Summit"
    },
    {
        "id": 460,
        "address": "132 Maryland Terrace",
        "pin_code": "6",
        "lat": 41.811979,
        "long": 126.918087,
        "street_name": "Kedzie"
    },
    {
        "id": 494,
        "address": "7665 Jackson Alley",
        "pin_code": "6",
        "lat": 39.377733,
        "long": 99.819316,
        "street_name": "Dorton"
    },
    {
        "id": 604,
        "address": "5 Bunker Hill Terrace",
        "pin_code": "6",
        "lat": 35.3295265,
        "long": 136.8019188,
        "street_name": "Graceland"
    },
    {
        "id": 703,
        "address": "4894 Alpine Court",
        "pin_code": "6",
        "lat": 32.147679,
        "long": 114.091192,
        "street_name": "Spaight"
    },
    {
        "id": 705,
        "address": "29 Kenwood Point",
        "pin_code": "6",
        "lat": 50.8290137,
        "long": 15.6741931,
        "street_name": "Twin Pines"
    },
    {
        "id": 711,
        "address": "8 Stephen Alley",
        "pin_code": "6",
        "lat": 50.6000912,
        "long": 94.9998807,
        "street_name": "Stone Corner"
    },
    {
        "id": 769,
        "address": "0516 3rd Court",
        "pin_code": "6",
        "lat": 30.63963,
        "long": 114.385538,
        "street_name": "Cambridge"
    },
    {
        "id": 836,
        "address": "78 Warner Parkway",
        "pin_code": "6",
        "lat": 12.8371919,
        "long": -4.9221114,
        "street_name": "Waubesa"
    },
    {
        "id": 849,
        "address": "67 Oak Street",
        "pin_code": "6",
        "lat": "50.99206",
        "long": "121.05843",
        "street_name": "Mayer"
    },
    {
        "id": 894,
        "address": "5 Katie Street",
        "pin_code": "6",
        "lat": 31.689957,
        "long": 35.188236,
        "street_name": "Westport"
    },
    {
        "id": 927,
        "address": "84668 Butterfield Street",
        "pin_code": "6",
        "lat": 39.4798873,
        "long": -0.3979657,
        "street_name": "Goodland"
    },
    {
        "id": 1000,
        "address": "20 Ridgeview Alley",
        "pin_code": "6",
        "lat": 5.5773983,
        "long": -0.3136781,
        "street_name": "Vernon"
    },
    {
        "id": 144,
        "address": "445 Kings Junction",
        "pin_code": "60",
        "lat": 36.9382393,
        "long": 136.8170714,
        "street_name": "Grim"
    },
    {
        "id": 739,
        "address": "4 Division Terrace",
        "pin_code": "60",
        "lat": 24.304673,
        "long": 113.136459,
        "street_name": "Vahlen"
    },
    {
        "id": 904,
        "address": "628 Rigney Center",
        "pin_code": "60",
        "lat": 1.0029693,
        "long": 34.3338123,
        "street_name": "Oak"
    },
    {
        "id": 332,
        "address": "33 Paget Road",
        "pin_code": "6008",
        "lat": 28.0003221,
        "long": -82.5889012,
        "street_name": "Little Fleur"
    },
    {
        "id": 480,
        "address": "65 Jenifer Point",
        "pin_code": "601",
        "lat": 63.4400274,
        "long": 10.4024274,
        "street_name": "Logan"
    },
    {
        "id": 322,
        "address": "9884 Elgar Drive",
        "pin_code": "60114",
        "lat": -6.8973394,
        "long": 112.9565196,
        "street_name": "Del Mar"
    },
    {
        "id": 751,
        "address": "673 Evergreen Terrace",
        "pin_code": "6012",
        "lat": 35.7255757,
        "long": 10.5802503,
        "street_name": "Petterle"
    },
    {
        "id": 125,
        "address": "076 Dorton Alley",
        "pin_code": "602",
        "lat": 45.2051732,
        "long": 20.1323619,
        "street_name": "Amoth"
    },
    {
        "id": 962,
        "address": "2208 Claremont Point",
        "pin_code": "60272",
        "lat": 49.2760303,
        "long": 23.5105576,
        "street_name": "Garrison"
    },
    {
        "id": 572,
        "address": "64364 Tennyson Way",
        "pin_code": "6041",
        "lat": 30.910965,
        "long": 114.827038,
        "street_name": "Lukken"
    },
    {
        "id": 22,
        "address": "15 Monica Avenue",
        "pin_code": "60427",
        "lat": -2.886385,
        "long": -78.7759559,
        "street_name": "Maryland"
    },
    {
        "id": 741,
        "address": "3790 Acker Circle",
        "pin_code": "6047",
        "lat": 36.213813,
        "long": 117.676723,
        "street_name": "Helena"
    },
    {
        "id": 566,
        "address": "5065 Anniversary Lane",
        "pin_code": "605",
        "lat": 60.1387829,
        "long": 14.3822323,
        "street_name": "Raven"
    },
    {
        "id": 167,
        "address": "995 Orin Place",
        "pin_code": "60581",
        "lat": 50.6261682,
        "long": 13.9528289,
        "street_name": "Goodland"
    },
    {
        "id": 369,
        "address": "865 Eliot Avenue",
        "pin_code": "606",
        "lat": -26.800415,
        "long": -60.840114,
        "street_name": "Charing Cross"
    },
    {
        "id": 819,
        "address": "48 Atwood Crossing",
        "pin_code": "60771",
        "lat": 57.7576914,
        "long": 12.0512149,
        "street_name": "Norway Maple"
    },
    {
        "id": 481,
        "address": "09403 Stoughton Pass",
        "pin_code": "608",
        "lat": 16.3762123,
        "long": 44.0865232,
        "street_name": "Hansons"
    },
    {
        "id": 233,
        "address": "925 Hooker Point",
        "pin_code": "6080",
        "lat": 22.5835642,
        "long": -83.9479637,
        "street_name": "Springview"
    },
    {
        "id": 416,
        "address": "412 Bunker Hill Center",
        "pin_code": "61",
        "lat": 22.915288,
        "long": 114.003577,
        "street_name": "Roxbury"
    },
    {
        "id": 444,
        "address": "27512 Hansons Place",
        "pin_code": "61",
        "lat": 46.2983568,
        "long": -0.8937702,
        "street_name": "Little Fleur"
    },
    {
        "id": 540,
        "address": "84 Summer Ridge Hill",
        "pin_code": "6107",
        "lat": 6.0849674,
        "long": 11.4878714,
        "street_name": "Delaware"
    },
    {
        "id": 672,
        "address": "478 Sommers Trail",
        "pin_code": "611",
        "lat": 55.9424359,
        "long": 37.3473833,
        "street_name": "Kensington"
    },
    {
        "id": 688,
        "address": "3148 Utah Hill",
        "pin_code": "614",
        "lat": 52.6889085,
        "long": 15.0706674,
        "street_name": "Waxwing"
    },
    {
        "id": 979,
        "address": "481 Muir Terrace",
        "pin_code": "61854",
        "lat": -7.5085719,
        "long": -35.3126181,
        "street_name": "Ridgeview"
    },
    {
        "id": 298,
        "address": "5 Kensington Terrace",
        "pin_code": "6213",
        "lat": 41.136741,
        "long": 20.384833,
        "street_name": "Barnett"
    },
    {
        "id": 5,
        "address": "115 Starling Street",
        "pin_code": "622",
        "lat": 23.913205,
        "long": 116.464983,
        "street_name": "Ronald Regan"
    },
    {
        "id": 357,
        "address": "6695 Prairie Rose Avenue",
        "pin_code": "6223",
        "lat": 41.57365,
        "long": 120.4493879,
        "street_name": "Delladonna"
    },
    {
        "id": 411,
        "address": "64256 Farmco Drive",
        "pin_code": "6250",
        "lat": 14.5598164,
        "long": 121.0409412,
        "street_name": "Onsgard"
    },
    {
        "id": 346,
        "address": "47115 Sheridan Terrace",
        "pin_code": "626",
        "lat": 41.8404241,
        "long": 23.485653,
        "street_name": "Lukken"
    },
    {
        "id": 634,
        "address": "62 Merrick Plaza",
        "pin_code": "6287",
        "lat": -6.588201,
        "long": 106.804564,
        "street_name": "Calypso"
    },
    {
        "id": 677,
        "address": "16 Oneill Plaza",
        "pin_code": "62945",
        "lat": 26.8718026,
        "long": 100.2358502,
        "street_name": "Holy Cross"
    },
    {
        "id": 348,
        "address": "8 Michigan Avenue",
        "pin_code": "63",
        "lat": 59.8509005,
        "long": 17.6300093,
        "street_name": "Anniversary"
    },
    {
        "id": 225,
        "address": "9249 Pankratz Alley",
        "pin_code": "631",
        "lat": 54.8583596,
        "long": 44.1463438,
        "street_name": "Anthes"
    },
    {
        "id": 742,
        "address": "749 Bunker Hill Point",
        "pin_code": "63311",
        "lat": -7.4703872,
        "long": 110.9387418,
        "street_name": "La Follette"
    },
    {
        "id": 311,
        "address": "0 Namekagon Hill",
        "pin_code": "6335",
        "lat": 49.0337963,
        "long": 16.2983865,
        "street_name": "Lerdahl"
    },
    {
        "id": 438,
        "address": "79213 Scofield Place",
        "pin_code": "634",
        "lat": 53.310122,
        "long": -6.2892907,
        "street_name": "Carpenter"
    },
    {
        "id": 999,
        "address": "2708 Moulton Park",
        "pin_code": "63415",
        "lat": 30.63963,
        "long": 114.385538,
        "street_name": "Bay"
    },
    {
        "id": 924,
        "address": "902 Main Alley",
        "pin_code": "6352",
        "lat": -20.4200737,
        "long": 57.5490299,
        "street_name": "Independence"
    },
    {
        "id": 23,
        "address": "861 Schlimgen Court",
        "pin_code": "638",
        "lat": -6.38706,
        "long": 106.82725,
        "street_name": "Canary"
    },
    {
        "id": 547,
        "address": "90944 Rowland Pass",
        "pin_code": "64",
        "lat": 6.6101493,
        "long": 0.4785495,
        "street_name": "Wayridge"
    },
    {
        "id": 921,
        "address": "1 Vera Hill",
        "pin_code": "64",
        "lat": 8.919623,
        "long": 124.783907,
        "street_name": "Mockingbird"
    },
    {
        "id": 675,
        "address": "16 Burning Wood Avenue",
        "pin_code": "6400",
        "lat": 52.5017027,
        "long": 73.0947195,
        "street_name": "Evergreen"
    },
    {
        "id": 451,
        "address": "6381 Nova Plaza",
        "pin_code": "642",
        "lat": -7.3260543,
        "long": 108.3655011,
        "street_name": "Bultman"
    },
    {
        "id": 574,
        "address": "9046 Huxley Court",
        "pin_code": "642",
        "lat": -8.1611036,
        "long": 113.6770012,
        "street_name": "Montana"
    },
    {
        "id": 128,
        "address": "01171 Southridge Alley",
        "pin_code": "6429",
        "lat": -8.4942298,
        "long": 118.5360226,
        "street_name": "Hauk"
    },
    {
        "id": 58,
        "address": "2 Glacier Hill Road",
        "pin_code": "6461",
        "lat": 45.6747796,
        "long": 18.5702566,
        "street_name": "Eastlawn"
    },
    {
        "id": 145,
        "address": "40037 Memorial Lane",
        "pin_code": "648",
        "lat": 34.746611,
        "long": 113.625328,
        "street_name": "Atwood"
    },
    {
        "id": 502,
        "address": "3146 Carpenter Drive",
        "pin_code": "64836",
        "lat": 1.5594449,
        "long": 101.0146187,
        "street_name": "Browning"
    },
    {
        "id": 485,
        "address": "05 Lukken Court",
        "pin_code": "64840",
        "lat": 2.9667878,
        "long": 32.0837445,
        "street_name": "Springview"
    },
    {
        "id": 840,
        "address": "603 Burrows Lane",
        "pin_code": "6487",
        "lat": 50.5332417,
        "long": 23.7255557,
        "street_name": "Monica"
    },
    {
        "id": 522,
        "address": "02 Linden Street",
        "pin_code": "64924",
        "lat": -8.0474747,
        "long": 111.9224398,
        "street_name": "Amoth"
    },
    {
        "id": 879,
        "address": "53 Di Loreto Park",
        "pin_code": "6498",
        "lat": 40.7038775,
        "long": -74.16442,
        "street_name": "Reinke"
    },
    {
        "id": 803,
        "address": "53959 Hauk Circle",
        "pin_code": "65",
        "lat": 28.520684,
        "long": 112.140063,
        "street_name": "Emmet"
    },
    {
        "id": 834,
        "address": "89315 Arkansas Lane",
        "pin_code": "65",
        "lat": "54.36667",
        "long": "24.33333",
        "street_name": "Meadow Ridge"
    },
    {
        "id": 957,
        "address": "9278 Bunker Hill Place",
        "pin_code": "65",
        "lat": 42.5246357,
        "long": 87.5395855,
        "street_name": "Grover"
    },
    {
        "id": 535,
        "address": "59045 Bowman Point",
        "pin_code": "653",
        "lat": -20.7371116,
        "long": -48.9110606,
        "street_name": "Dapin"
    },
    {
        "id": 812,
        "address": "47 Russell Way",
        "pin_code": "656",
        "lat": -37.9361202,
        "long": -57.5552203,
        "street_name": "Manitowish"
    },
    {
        "id": 685,
        "address": "37187 Prairie Rose Lane",
        "pin_code": "65816",
        "lat": 10.1579312,
        "long": -67.9972104,
        "street_name": "Petterle"
    },
    {
        "id": 262,
        "address": "1793 Lien Avenue",
        "pin_code": "659",
        "lat": 53.4698755,
        "long": 35.0963837,
        "street_name": "Sutherland"
    },
    {
        "id": 770,
        "address": "08 Petterle Alley",
        "pin_code": "659",
        "lat": -8.305583,
        "long": 116.3957812,
        "street_name": "American"
    },
    {
        "id": 794,
        "address": "49 Emmet Lane",
        "pin_code": "65914",
        "lat": 44.1947831,
        "long": 132.518626,
        "street_name": "Amoth"
    },
    {
        "id": 509,
        "address": "76 Bobwhite Terrace",
        "pin_code": "65934",
        "lat": 38.8091524,
        "long": -9.1166554,
        "street_name": "Summerview"
    },
    {
        "id": 905,
        "address": "2 Surrey Park",
        "pin_code": "66",
        "lat": 7.0115716,
        "long": 39.9761012,
        "street_name": "Tony"
    },
    {
        "id": 488,
        "address": "3094 Reindahl Lane",
        "pin_code": "66147",
        "lat": 10.890811,
        "long": 124.457075,
        "street_name": "Doe Crossing"
    },
    {
        "id": 940,
        "address": "7 Bowman Park",
        "pin_code": "66249",
        "lat": 51.1434519,
        "long": 40.2997102,
        "street_name": "Blaine"
    },
    {
        "id": 2,
        "address": "1562 Riverside Street",
        "pin_code": "66503",
        "lat": 30.493506,
        "long": 112.906645,
        "street_name": "Gulseth"
    },
    {
        "id": 301,
        "address": "7054 Old Shore Center",
        "pin_code": "66574",
        "lat": 52.999325,
        "long": 39.118232,
        "street_name": "Alpine"
    },
    {
        "id": 569,
        "address": "67 Farwell Junction",
        "pin_code": "667",
        "lat": 38.6030067,
        "long": 140.3923791,
        "street_name": "Huxley"
    },
    {
        "id": 617,
        "address": "090 Fieldstone Place",
        "pin_code": "668",
        "lat": 49.904915,
        "long": 30.8369641,
        "street_name": "Forster"
    },
    {
        "id": 112,
        "address": "48 South Point",
        "pin_code": "67",
        "lat": 51.954075,
        "long": 85.800614,
        "street_name": "Sullivan"
    },
    {
        "id": 151,
        "address": "1 John Wall Parkway",
        "pin_code": "67",
        "lat": 45.2414259,
        "long": 20.3589241,
        "street_name": "Loftsgordon"
    },
    {
        "id": 589,
        "address": "6 Memorial Road",
        "pin_code": "67",
        "lat": 31.7338222,
        "long": 118.8719394,
        "street_name": "Luster"
    },
    {
        "id": 642,
        "address": "683 Shoshone Circle",
        "pin_code": "67",
        "lat": 48.8312275,
        "long": 16.0250895,
        "street_name": "Lyons"
    },
    {
        "id": 50,
        "address": "1019 Packers Trail",
        "pin_code": "6710",
        "lat": 14.5655642,
        "long": 121.032693,
        "street_name": "Algoma"
    },
    {
        "id": 263,
        "address": "01 Onsgard Lane",
        "pin_code": "674",
        "lat": 52.4271002,
        "long": 21.6349927,
        "street_name": "Rusk"
    },
    {
        "id": 447,
        "address": "4755 Eastlawn Street",
        "pin_code": "67467",
        "lat": 36.628305,
        "long": 101.765843,
        "street_name": "Meadow Ridge"
    },
    {
        "id": 774,
        "address": "6 Schlimgen Park",
        "pin_code": "675",
        "lat": -34.9284989,
        "long": 138.6007456,
        "street_name": "Shasta"
    },
    {
        "id": 851,
        "address": "288 Shasta Junction",
        "pin_code": "675",
        "lat": 38.133032,
        "long": -85.8963964,
        "street_name": "Forest Run"
    },
    {
        "id": 276,
        "address": "737 Welch Pass",
        "pin_code": "67641",
        "lat": 29.334318,
        "long": 117.001279,
        "street_name": "Green"
    },
    {
        "id": 602,
        "address": "2451 Sunbrook Alley",
        "pin_code": "677",
        "lat": 52.6638144,
        "long": -8.6340751,
        "street_name": "Clarendon"
    },
    {
        "id": 201,
        "address": "7 Schiller Road",
        "pin_code": "67718",
        "lat": 9.201062,
        "long": -73.5425659,
        "street_name": "Loomis"
    },
    {
        "id": 587,
        "address": "23075 Esch Alley",
        "pin_code": "67734",
        "lat": 7.7701761,
        "long": 7.0498442,
        "street_name": "Del Mar"
    },
    {
        "id": 83,
        "address": "9547 Warner Trail",
        "pin_code": "6776",
        "lat": 48.5986674,
        "long": 37.9980367,
        "street_name": "Monterey"
    },
    {
        "id": 584,
        "address": "707 Mcguire Terrace",
        "pin_code": "678",
        "lat": 52.1501483,
        "long": 20.8188133,
        "street_name": "Pepper Wood"
    },
    {
        "id": 292,
        "address": "089 Victoria Avenue",
        "pin_code": "68",
        "lat": -12.0817609,
        "long": -77.0960876,
        "street_name": "Northwestern"
    },
    {
        "id": 628,
        "address": "63 Killdeer Terrace",
        "pin_code": "68",
        "lat": 36.1722416,
        "long": 37.5454589,
        "street_name": "Lyons"
    },
    {
        "id": 539,
        "address": "64 American Trail",
        "pin_code": "680",
        "lat": 13.29664,
        "long": 123.756628,
        "street_name": "Packers"
    },
    {
        "id": 966,
        "address": "239 Stone Corner Parkway",
        "pin_code": "6820",
        "lat": 31.4805866,
        "long": -97.7347956,
        "street_name": "South"
    },
    {
        "id": 846,
        "address": "9 Trailsway Circle",
        "pin_code": "6836",
        "lat": -8.401854,
        "long": 114.118103,
        "street_name": "Magdeline"
    },
    {
        "id": 872,
        "address": "51783 Schiller Park",
        "pin_code": "6857",
        "lat": 50.5131329,
        "long": 17.334602,
        "street_name": "Gerald"
    },
    {
        "id": 90,
        "address": "184 Old Gate Terrace",
        "pin_code": "687",
        "lat": 38.8678657,
        "long": -9.4272778,
        "street_name": "Vahlen"
    },
    {
        "id": 588,
        "address": "961 Muir Court",
        "pin_code": "68800",
        "lat": -16.4981761,
        "long": -69.1014935,
        "street_name": "Hanson"
    },
    {
        "id": 408,
        "address": "6157 Dawn Street",
        "pin_code": "6889",
        "lat": 49.880883,
        "long": 19.217373,
        "street_name": "Moulton"
    },
    {
        "id": 942,
        "address": "759 Red Cloud Hill",
        "pin_code": "68895",
        "lat": "32.20076",
        "long": "79.18447",
        "street_name": "Fieldstone"
    },
    {
        "id": 903,
        "address": "9 Summer Ridge Point",
        "pin_code": "69",
        "lat": -7.0431437,
        "long": 111.3679689,
        "street_name": "Westend"
    },
    {
        "id": 516,
        "address": "24 Clemons Lane",
        "pin_code": "6939",
        "lat": 43.899227,
        "long": -79.273304,
        "street_name": "Westport"
    },
    {
        "id": 641,
        "address": "7083 Manufacturers Hill",
        "pin_code": "694",
        "lat": 49.9787123,
        "long": 19.893249,
        "street_name": "Butternut"
    },
    {
        "id": 101,
        "address": "69952 Muir Park",
        "pin_code": "6941",
        "lat": 25.318672,
        "long": 119.105528,
        "street_name": "Cardinal"
    },
    {
        "id": 960,
        "address": "7 Mccormick Crossing",
        "pin_code": "695",
        "lat": -20.0256695,
        "long": -44.0572964,
        "street_name": "Summit"
    },
    {
        "id": 629,
        "address": "7438 Walton Parkway",
        "pin_code": "69571",
        "lat": 41.11023,
        "long": 20.0866554,
        "street_name": "Sloan"
    },
    {
        "id": 363,
        "address": "46235 Knutson Parkway",
        "pin_code": "6962",
        "lat": 41.57365,
        "long": 120.4493879,
        "street_name": "Sutherland"
    },
    {
        "id": 709,
        "address": "2 Lighthouse Bay Point",
        "pin_code": "69653",
        "lat": 57.6995979,
        "long": 11.9761953,
        "street_name": "Mendota"
    },
    {
        "id": 123,
        "address": "6599 Brown Hill",
        "pin_code": "69769",
        "lat": 50.4086421,
        "long": 36.8953954,
        "street_name": "Nevada"
    },
    {
        "id": 944,
        "address": "5 Katie Crossing",
        "pin_code": "69903",
        "lat": 19.3957419,
        "long": -97.2826539,
        "street_name": "Ohio"
    },
    {
        "id": 34,
        "address": "13396 Eagle Crest Center",
        "pin_code": "7",
        "lat": -10.5571304,
        "long": 121.8505679,
        "street_name": "Marcy"
    },
    {
        "id": 159,
        "address": "197 Dakota Hill",
        "pin_code": "7",
        "lat": 34.723382,
        "long": 116.940771,
        "street_name": "Pennsylvania"
    },
    {
        "id": 250,
        "address": "92 Park Meadow Avenue",
        "pin_code": "7",
        "lat": 64.0615492,
        "long": 23.6542166,
        "street_name": "2nd"
    },
    {
        "id": 267,
        "address": "23608 Daystar Pass",
        "pin_code": "7",
        "lat": -2.9997434,
        "long": 104.8162784,
        "street_name": "Clarendon"
    },
    {
        "id": 290,
        "address": "1 Debra Road",
        "pin_code": "7",
        "lat": -7.6617749,
        "long": 108.7303974,
        "street_name": "Dixon"
    },
    {
        "id": 371,
        "address": "84 Dorton Avenue",
        "pin_code": "7",
        "lat": 36.406404,
        "long": 94.928484,
        "street_name": "Bobwhite"
    },
    {
        "id": 405,
        "address": "1 Springview Alley",
        "pin_code": "7",
        "lat": 63.827461,
        "long": 20.2599325,
        "street_name": "Vera"
    },
    {
        "id": 407,
        "address": "2 Hallows Drive",
        "pin_code": "7",
        "lat": 51.4090959,
        "long": 22.051777,
        "street_name": "Gale"
    },
    {
        "id": 467,
        "address": "96033 Colorado Point",
        "pin_code": "7",
        "lat": 51.5749006,
        "long": 4.7680893,
        "street_name": "Raven"
    },
    {
        "id": 493,
        "address": "408 Moland Crossing",
        "pin_code": "7",
        "lat": "-8.8512",
        "long": "121.6439",
        "street_name": "Crowley"
    },
    {
        "id": 606,
        "address": "7524 Mallard Avenue",
        "pin_code": "7",
        "lat": 31.363344,
        "long": 120.547358,
        "street_name": "Main"
    },
    {
        "id": 636,
        "address": "2 Merry Parkway",
        "pin_code": "7",
        "lat": 9.939624,
        "long": 126.065213,
        "street_name": "Truax"
    },
    {
        "id": 738,
        "address": "9 Reinke Lane",
        "pin_code": "7",
        "lat": 60.4253612,
        "long": 16.5438565,
        "street_name": "Corscot"
    },
    {
        "id": 747,
        "address": "12960 Karstens Drive",
        "pin_code": "7",
        "lat": 36.1638733,
        "long": 137.4024848,
        "street_name": "Birchwood"
    },
    {
        "id": 801,
        "address": "5337 Washington Place",
        "pin_code": "7",
        "lat": 40.0196006,
        "long": 44.4229372,
        "street_name": "Debra"
    },
    {
        "id": 810,
        "address": "04 School Point",
        "pin_code": "7",
        "lat": 30.855065,
        "long": 113.734707,
        "street_name": "Bluejay"
    },
    {
        "id": 823,
        "address": "9865 8th Pass",
        "pin_code": "7",
        "lat": -22.0227557,
        "long": -63.6775234,
        "street_name": "Messerschmidt"
    },
    {
        "id": 830,
        "address": "06 Messerschmidt Junction",
        "pin_code": "7",
        "lat": 64.403043,
        "long": 27.8381469,
        "street_name": "Buhler"
    },
    {
        "id": 853,
        "address": "6629 Surrey Avenue",
        "pin_code": "7",
        "lat": -34.6833725,
        "long": -58.429967,
        "street_name": "Coolidge"
    },
    {
        "id": 933,
        "address": "36 East Avenue",
        "pin_code": "7",
        "lat": 12.5322527,
        "long": -13.1221388,
        "street_name": "Cardinal"
    },
    {
        "id": 982,
        "address": "67 American Ash Avenue",
        "pin_code": "7",
        "lat": 56.7980147,
        "long": 60.4890295,
        "street_name": "Golden Leaf"
    },
    {
        "id": 989,
        "address": "34206 Lotheville Hill",
        "pin_code": "7",
        "lat": 29.972084,
        "long": 106.27613,
        "street_name": "Pierstorff"
    },
    {
        "id": 229,
        "address": "0147 Thierer Plaza",
        "pin_code": "70",
        "lat": 38.4193975,
        "long": 140.1609746,
        "street_name": "Lighthouse Bay"
    },
    {
        "id": 355,
        "address": "147 Portage Junction",
        "pin_code": "70",
        "lat": 30.397162,
        "long": 120.855089,
        "street_name": "Cascade"
    },
    {
        "id": 915,
        "address": "1618 Lindbergh Drive",
        "pin_code": "70",
        "lat": 4.9697573,
        "long": 10.7013332,
        "street_name": "Browning"
    },
    {
        "id": 84,
        "address": "9959 Merrick Parkway",
        "pin_code": "706",
        "lat": 7.9632405,
        "long": 123.8751554,
        "street_name": "Dryden"
    },
    {
        "id": 691,
        "address": "49 Basil Street",
        "pin_code": "70765",
        "lat": 53.2625544,
        "long": 19.826521,
        "street_name": "Pine View"
    },
    {
        "id": 326,
        "address": "54 Randy Trail",
        "pin_code": "708",
        "lat": 50.5856582,
        "long": 16.3318151,
        "street_name": "Transport"
    },
    {
        "id": 173,
        "address": "11202 La Follette Trail",
        "pin_code": "709",
        "lat": 21.853708,
        "long": 106.761519,
        "street_name": "Redwing"
    },
    {
        "id": 469,
        "address": "694 Hooker Park",
        "pin_code": "7099",
        "lat": 35.819227,
        "long": 108.019549,
        "street_name": "Elgar"
    },
    {
        "id": 585,
        "address": "1547 Nevada Drive",
        "pin_code": "71",
        "lat": 50.2246249,
        "long": 17.1980471,
        "street_name": "Mcbride"
    },
    {
        "id": 869,
        "address": "71994 Dennis Parkway",
        "pin_code": "71",
        "lat": 29.859258,
        "long": 98.007143,
        "street_name": "Shelley"
    },
    {
        "id": 289,
        "address": "3650 Farmco Park",
        "pin_code": "714",
        "lat": 45.457057,
        "long": 28.2888529,
        "street_name": "Packers"
    },
    {
        "id": 708,
        "address": "92340 Grasskamp Terrace",
        "pin_code": "7145",
        "lat": "46.48684",
        "long": "32.97498",
        "street_name": "Bellgrove"
    },
    {
        "id": 971,
        "address": "5 Grasskamp Terrace",
        "pin_code": "7153",
        "lat": 41.4024948,
        "long": -8.6407151,
        "street_name": "Grasskamp"
    },
    {
        "id": 800,
        "address": "9611 Larry Hill",
        "pin_code": "7220",
        "lat": 14.0285468,
        "long": 120.7181027,
        "street_name": "Summerview"
    },
    {
        "id": 395,
        "address": "45504 Vernon Terrace",
        "pin_code": "723",
        "lat": -7.4,
        "long": 107.5,
        "street_name": "Reindahl"
    },
    {
        "id": 185,
        "address": "0318 Prairie Rose Center",
        "pin_code": "72528",
        "lat": 29.2188245,
        "long": 80.4993857,
        "street_name": "Burrows"
    },
    {
        "id": 471,
        "address": "250 Loftsgordon Lane",
        "pin_code": "73",
        "lat": 40.2201203,
        "long": 23.6688433,
        "street_name": "Riverside"
    },
    {
        "id": 889,
        "address": "407 Anthes Junction",
        "pin_code": "73",
        "lat": 8.3839026,
        "long": 123.2857418,
        "street_name": "Sutteridge"
    },
    {
        "id": 910,
        "address": "6 Drewry Circle",
        "pin_code": "73",
        "lat": 43.9332185,
        "long": -78.8439268,
        "street_name": "Graedel"
    },
    {
        "id": 462,
        "address": "9692 Northridge Terrace",
        "pin_code": "73036",
        "lat": 39.4753881,
        "long": -8.243037,
        "street_name": "7th"
    },
    {
        "id": 648,
        "address": "1 Prentice Terrace",
        "pin_code": "7308",
        "lat": 30.9882241,
        "long": 121.1241334,
        "street_name": "Sycamore"
    },
    {
        "id": 459,
        "address": "43806 Lerdahl Point",
        "pin_code": "7341",
        "lat": 49.4227567,
        "long": 15.1059917,
        "street_name": "West"
    },
    {
        "id": 673,
        "address": "693 Lakewood Avenue",
        "pin_code": "7347",
        "lat": 54.4658152,
        "long": 19.9348453,
        "street_name": "Mesta"
    },
    {
        "id": 690,
        "address": "1 Morrow Avenue",
        "pin_code": "735",
        "lat": 14.434698,
        "long": 120.878011,
        "street_name": "Ronald Regan"
    },
    {
        "id": 406,
        "address": "4 Stang Parkway",
        "pin_code": "73699",
        "lat": 16.3273562,
        "long": -86.5627851,
        "street_name": "Lakewood Gardens"
    },
    {
        "id": 66,
        "address": "83021 Beilfuss Place",
        "pin_code": "73701",
        "lat": 26.641315,
        "long": 100.222545,
        "street_name": "Monument"
    },
    {
        "id": 281,
        "address": "33539 Hansons Road",
        "pin_code": "74",
        "lat": 31.875572,
        "long": 120.556005,
        "street_name": "Algoma"
    },
    {
        "id": 349,
        "address": "847 Waxwing Crossing",
        "pin_code": "74",
        "lat": -7.302664,
        "long": 112.7330892,
        "street_name": "Ramsey"
    },
    {
        "id": 626,
        "address": "99115 Burning Wood Parkway",
        "pin_code": "74",
        "lat": -5.0979659,
        "long": 105.3467822,
        "street_name": "Mallory"
    },
    {
        "id": 746,
        "address": "82021 New Castle Drive",
        "pin_code": "74",
        "lat": 66.6441543,
        "long": 66.4550896,
        "street_name": "Muir"
    },
    {
        "id": 59,
        "address": "6807 Hollow Ridge Park",
        "pin_code": "7407",
        "lat": 51.4523697,
        "long": 34.8557117,
        "street_name": "Hermina"
    },
    {
        "id": 249,
        "address": "29387 West Crossing",
        "pin_code": "74193",
        "lat": 48.0080981,
        "long": 6.7166698,
        "street_name": "Gale"
    },
    {
        "id": 805,
        "address": "5517 Eggendart Parkway",
        "pin_code": "74210",
        "lat": "55.7",
        "long": "37.58333",
        "street_name": "Roth"
    },
    {
        "id": 175,
        "address": "34 Bobwhite Way",
        "pin_code": "74253",
        "lat": -20.2197867,
        "long": -40.2721884,
        "street_name": "South"
    },
    {
        "id": 184,
        "address": "15467 Vidon Circle",
        "pin_code": "743",
        "lat": 59.2883751,
        "long": 18.0250491,
        "street_name": "Drewry"
    },
    {
        "id": 753,
        "address": "4181 Bunting Way",
        "pin_code": "746",
        "lat": -39.2820124,
        "long": -72.2307798,
        "street_name": "Ohio"
    },
    {
        "id": 183,
        "address": "21972 Warbler Parkway",
        "pin_code": "74654",
        "lat": -15.2159658,
        "long": -69.6892254,
        "street_name": "Monterey"
    },
    {
        "id": 579,
        "address": "877 Mesta Lane",
        "pin_code": "747",
        "lat": -3.4301491,
        "long": 114.678669,
        "street_name": "Porter"
    },
    {
        "id": 992,
        "address": "56 Clemons Drive",
        "pin_code": "74729",
        "lat": 59.1536477,
        "long": 10.2212404,
        "street_name": "Fallview"
    },
    {
        "id": 205,
        "address": "042 Golden Leaf Plaza",
        "pin_code": "74831",
        "lat": 18.4176704,
        "long": -70.0957159,
        "street_name": "Mandrake"
    },
    {
        "id": 397,
        "address": "73169 Golf Course Road",
        "pin_code": "75",
        "lat": 33.6669335,
        "long": 113.1115294,
        "street_name": "Hermina"
    },
    {
        "id": 687,
        "address": "375 Beilfuss Center",
        "pin_code": "7528",
        "lat": 23.028956,
        "long": 113.143441,
        "street_name": "Sunbrook"
    },
    {
        "id": 227,
        "address": "37 Autumn Leaf Center",
        "pin_code": "75307",
        "lat": 45.7787293,
        "long": 3.0857432,
        "street_name": "Eggendart"
    },
    {
        "id": 317,
        "address": "10223 Rowland Way",
        "pin_code": "7549",
        "lat": -10.1496705,
        "long": 123.6539405,
        "street_name": "Shoshone"
    },
    {
        "id": 861,
        "address": "52 Morrow Alley",
        "pin_code": "75817",
        "lat": 38.963066,
        "long": 100.177294,
        "street_name": "Shelley"
    },
    {
        "id": 536,
        "address": "2 Sunbrook Plaza",
        "pin_code": "760",
        "lat": 56.5385265,
        "long": 14.1115837,
        "street_name": "Anniversary"
    },
    {
        "id": 764,
        "address": "4724 Messerschmidt Lane",
        "pin_code": "760",
        "lat": 50.0055345,
        "long": 20.5122334,
        "street_name": "Lakewood Gardens"
    },
    {
        "id": 143,
        "address": "3 Graedel Court",
        "pin_code": "7603",
        "lat": 18.026373,
        "long": -95.514174,
        "street_name": "Loftsgordon"
    },
    {
        "id": 228,
        "address": "467 Ronald Regan Circle",
        "pin_code": "761",
        "lat": -13.3970988,
        "long": 48.2667279,
        "street_name": "Prairie Rose"
    },
    {
        "id": 207,
        "address": "66 Elka Circle",
        "pin_code": "763",
        "lat": 3.3273599,
        "long": 117.5785049,
        "street_name": "5th"
    },
    {
        "id": 950,
        "address": "24125 Bluestem Alley",
        "pin_code": "7639",
        "lat": 25.606486,
        "long": 100.267638,
        "street_name": "Golden Leaf"
    },
    {
        "id": 186,
        "address": "8317 Marquette Alley",
        "pin_code": "764",
        "lat": -7.4157126,
        "long": -38.0843008,
        "street_name": "Macpherson"
    },
    {
        "id": 284,
        "address": "601 Oak Valley Lane",
        "pin_code": "76405",
        "lat": 14.31865,
        "long": 120.765351,
        "street_name": "Paget"
    },
    {
        "id": 859,
        "address": "284 Autumn Leaf Court",
        "pin_code": "76593",
        "lat": 27.8608333,
        "long": 117.7841666,
        "street_name": "Eliot"
    },
    {
        "id": 170,
        "address": "73 Michigan Trail",
        "pin_code": "77",
        "lat": 8.27533,
        "long": -73.868176,
        "street_name": "Old Shore"
    },
    {
        "id": 388,
        "address": "627 Lakeland Place",
        "pin_code": "77",
        "lat": 48.9475246,
        "long": 2.4888946,
        "street_name": "Banding"
    },
    {
        "id": 891,
        "address": "188 Main Road",
        "pin_code": "77",
        "lat": 29.985295,
        "long": 122.207215,
        "street_name": "Thierer"
    },
    {
        "id": 323,
        "address": "786 Fisk Circle",
        "pin_code": "77076",
        "lat": -6.3486919,
        "long": 106.0419754,
        "street_name": "Hagan"
    },
    {
        "id": 949,
        "address": "9 Eagan Lane",
        "pin_code": "77298",
        "lat": 58.3244259,
        "long": 12.278769,
        "street_name": "Spenser"
    },
    {
        "id": 110,
        "address": "29466 Warrior Trail",
        "pin_code": "7761",
        "lat": 35.8523575,
        "long": 66.5223902,
        "street_name": "Mosinee"
    },
    {
        "id": 177,
        "address": "78508 Kings Terrace",
        "pin_code": "78",
        "lat": 53.8044834,
        "long": 21.7303948,
        "street_name": "Old Gate"
    },
    {
        "id": 458,
        "address": "3 Thierer Hill",
        "pin_code": "78",
        "lat": 4.9026627,
        "long": 97.7878579,
        "street_name": "Dunning"
    },
    {
        "id": 684,
        "address": "2 Dexter Drive",
        "pin_code": "78",
        "lat": 32.719163,
        "long": 114.427248,
        "street_name": "Blaine"
    },
    {
        "id": 765,
        "address": "3 Dovetail Court",
        "pin_code": "78",
        "lat": 23.12468,
        "long": 113.3612,
        "street_name": "Melvin"
    },
    {
        "id": 780,
        "address": "8889 Declaration Parkway",
        "pin_code": "7818",
        "lat": 55.5305674,
        "long": 41.1014277,
        "street_name": "Homewood"
    },
    {
        "id": 529,
        "address": "95655 Ridge Oak Trail",
        "pin_code": "7827",
        "lat": 14.4783119,
        "long": 121.0331004,
        "street_name": "Mendota"
    },
    {
        "id": 213,
        "address": "05000 Raven Drive",
        "pin_code": "78299",
        "lat": 30.233873,
        "long": 119.724733,
        "street_name": "Chinook"
    },
    {
        "id": 575,
        "address": "2545 Cottonwood Point",
        "pin_code": "7836",
        "lat": 6.3188032,
        "long": 16.3758145,
        "street_name": "Sommers"
    },
    {
        "id": 498,
        "address": "96 Weeping Birch Court",
        "pin_code": "7839",
        "lat": 47.8417718,
        "long": -0.3419882,
        "street_name": "Sutteridge"
    },
    {
        "id": 934,
        "address": "992 Rutledge Parkway",
        "pin_code": "7842",
        "lat": 58.261515,
        "long": 12.2964905,
        "street_name": "Rigney"
    },
    {
        "id": 831,
        "address": "17 Arkansas Court",
        "pin_code": "78427",
        "lat": -6.2629253,
        "long": 106.7826245,
        "street_name": "Parkside"
    },
    {
        "id": 45,
        "address": "0731 Clove Crossing",
        "pin_code": "78632",
        "lat": 30.93908,
        "long": 113.733313,
        "street_name": "Longview"
    },
    {
        "id": 839,
        "address": "217 Elka Way",
        "pin_code": "78689",
        "lat": 6.5930772,
        "long": 124.6161575,
        "street_name": "Roth"
    },
    {
        "id": 304,
        "address": "85712 Almo Avenue",
        "pin_code": "7869",
        "lat": 57.8857887,
        "long": 12.3260421,
        "street_name": "Dixon"
    },
    {
        "id": 605,
        "address": "89717 Mcbride Crossing",
        "pin_code": "789",
        "lat": "-8.21304",
        "long": "114.15636",
        "street_name": "Corben"
    },
    {
        "id": 886,
        "address": "03059 Prentice Street",
        "pin_code": "79",
        "lat": 35.2075821,
        "long": 36.4229074,
        "street_name": "Lotheville"
    },
    {
        "id": 983,
        "address": "00 Orin Road",
        "pin_code": "792",
        "lat": 21.951497,
        "long": 111.809478,
        "street_name": "Corry"
    },
    {
        "id": 426,
        "address": "30 Holmberg Street",
        "pin_code": "79207",
        "lat": 18.5138139,
        "long": -72.2881907,
        "street_name": "North"
    },
    {
        "id": 961,
        "address": "4 Starling Center",
        "pin_code": "793",
        "lat": 27.569678,
        "long": 116.63704,
        "street_name": "Mitchell"
    },
    {
        "id": 142,
        "address": "091 Fulton Plaza",
        "pin_code": "7944",
        "lat": 13.5074239,
        "long": 120.9274735,
        "street_name": "Caliangt"
    },
    {
        "id": 336,
        "address": "10450 Clove Park",
        "pin_code": "79454",
        "lat": 25.7784224,
        "long": -103.2605763,
        "street_name": "Birchwood"
    },
    {
        "id": 161,
        "address": "0 Kinsman Point",
        "pin_code": "7960",
        "lat": 52.6380394,
        "long": 70.4223308,
        "street_name": "Novick"
    },
    {
        "id": 954,
        "address": "24 Kim Trail",
        "pin_code": "79602",
        "lat": 31.188637,
        "long": 121.436539,
        "street_name": "Mariners Cove"
    },
    {
        "id": 25,
        "address": "79 Manley Trail",
        "pin_code": "8",
        "lat": -6.8857846,
        "long": 111.2219041,
        "street_name": "Hallows"
    },
    {
        "id": 79,
        "address": "2 Clemons Point",
        "pin_code": "8",
        "lat": 23.144757,
        "long": 113.253429,
        "street_name": "Maryland"
    },
    {
        "id": 131,
        "address": "80641 Carberry Avenue",
        "pin_code": "8",
        "lat": -34.7569609,
        "long": -58.3736215,
        "street_name": "Elmside"
    },
    {
        "id": 318,
        "address": "47 Macpherson Avenue",
        "pin_code": "8",
        "lat": 27.091274,
        "long": 113.439972,
        "street_name": "Gina"
    },
    {
        "id": 495,
        "address": "32 Hauk Terrace",
        "pin_code": "8",
        "lat": -7.6617749,
        "long": 108.7303974,
        "street_name": "Lake View"
    },
    {
        "id": 506,
        "address": "83879 Stephen Place",
        "pin_code": "8",
        "lat": 20.3983828,
        "long": 104.2293297,
        "street_name": "Northland"
    },
    {
        "id": 544,
        "address": "661 New Castle Plaza",
        "pin_code": "8",
        "lat": 59.8970196,
        "long": 10.8161607,
        "street_name": "Grasskamp"
    },
    {
        "id": 778,
        "address": "7 Sage Alley",
        "pin_code": "8",
        "lat": 31.697512,
        "long": 121.424811,
        "street_name": "Fordem"
    },
    {
        "id": 918,
        "address": "10657 Grover Road",
        "pin_code": "8",
        "lat": -17.8766507,
        "long": 30.6775054,
        "street_name": "Spenser"
    },
    {
        "id": 172,
        "address": "4 Bultman Crossing",
        "pin_code": "80",
        "lat": 38.1278654,
        "long": 13.3486213,
        "street_name": "Autumn Leaf"
    },
    {
        "id": 295,
        "address": "1 Dexter Street",
        "pin_code": "80",
        "lat": "-8.4636",
        "long": "120.5128",
        "street_name": "Ridgeway"
    },
    {
        "id": 947,
        "address": "282 Daystar Park",
        "pin_code": "80",
        "lat": 32.6455862,
        "long": -16.8621088,
        "street_name": "Ramsey"
    },
    {
        "id": 13,
        "address": "89226 Kingsford Road",
        "pin_code": "80136",
        "lat": 34.998592,
        "long": 138.4400063,
        "street_name": "Golf View"
    },
    {
        "id": 472,
        "address": "90 Farragut Center",
        "pin_code": "805",
        "lat": 49.075615,
        "long": 16.6855513,
        "street_name": "Sullivan"
    },
    {
        "id": 530,
        "address": "1418 Morningstar Court",
        "pin_code": "8059",
        "lat": 27.145704,
        "long": 106.457478,
        "street_name": "Mccormick"
    },
    {
        "id": 383,
        "address": "1647 Sherman Center",
        "pin_code": "808",
        "lat": "51.3978",
        "long": "83.5598",
        "street_name": "South"
    },
    {
        "id": 46,
        "address": "94195 Union Court",
        "pin_code": "8080",
        "lat": 43.7549435,
        "long": 11.2216134,
        "street_name": "Rusk"
    },
    {
        "id": 797,
        "address": "800 Shasta Place",
        "pin_code": "80836",
        "lat": 37.6410379,
        "long": -7.6589255,
        "street_name": "Stoughton"
    },
    {
        "id": 372,
        "address": "58002 Miller Crossing",
        "pin_code": "8085",
        "lat": 14.8925962,
        "long": -88.7812586,
        "street_name": "Logan"
    },
    {
        "id": 146,
        "address": "81 Dahle Terrace",
        "pin_code": "81",
        "lat": 54.0925958,
        "long": 35.349821,
        "street_name": "Sheridan"
    },
    {
        "id": 147,
        "address": "6 Pawling Avenue",
        "pin_code": "81",
        "lat": 31.304274,
        "long": 117.924148,
        "street_name": "Eastwood"
    },
    {
        "id": 526,
        "address": "24177 Dahle Junction",
        "pin_code": "81",
        "lat": 46.6522807,
        "long": 38.0818378,
        "street_name": "Sutteridge"
    },
    {
        "id": 735,
        "address": "52 Pearson Terrace",
        "pin_code": "81",
        "lat": 41.3281534,
        "long": -8.1222717,
        "street_name": "Logan"
    },
    {
        "id": 12,
        "address": "50611 Thompson Avenue",
        "pin_code": "811",
        "lat": -11.8073632,
        "long": -39.3809152,
        "street_name": "Basil"
    },
    {
        "id": 272,
        "address": "1666 Esch Terrace",
        "pin_code": "811",
        "lat": -8.681402,
        "long": 115.1957203,
        "street_name": "Evergreen"
    },
    {
        "id": 532,
        "address": "7346 Heath Circle",
        "pin_code": "8153",
        "lat": -43.1169327,
        "long": -73.6138821,
        "street_name": "Main"
    },
    {
        "id": 364,
        "address": "546 Cody Parkway",
        "pin_code": "816",
        "lat": 12.3856506,
        "long": 125.3027214,
        "street_name": "School"
    },
    {
        "id": 218,
        "address": "53541 Cottonwood Alley",
        "pin_code": "8190",
        "lat": 23.365556,
        "long": 116.70345,
        "street_name": "Troy"
    },
    {
        "id": 55,
        "address": "04 Canary Circle",
        "pin_code": "82",
        "lat": -2.9135019,
        "long": -79.8156667,
        "street_name": "Messerschmidt"
    },
    {
        "id": 580,
        "address": "7550 Acker Road",
        "pin_code": "820",
        "lat": 45.7031383,
        "long": 14.5961993,
        "street_name": "Hallows"
    },
    {
        "id": 937,
        "address": "5193 Cambridge Drive",
        "pin_code": "820",
        "lat": -9.7239549,
        "long": 124.272721,
        "street_name": "Northland"
    },
    {
        "id": 243,
        "address": "63 Lien Point",
        "pin_code": "8245",
        "lat": 37.0827754,
        "long": -8.9092899,
        "street_name": "Monica"
    },
    {
        "id": 26,
        "address": "07 Farwell Lane",
        "pin_code": "82558",
        "lat": 30.272156,
        "long": 109.488172,
        "street_name": "Esker"
    },
    {
        "id": 396,
        "address": "6 Pawling Junction",
        "pin_code": "82602",
        "lat": 11.4522433,
        "long": -85.8050987,
        "street_name": "Pearson"
    },
    {
        "id": 908,
        "address": "750 Spaight Drive",
        "pin_code": "82792",
        "lat": 30.501816,
        "long": 110.738098,
        "street_name": "Esker"
    },
    {
        "id": 212,
        "address": "98 International Center",
        "pin_code": "8280",
        "lat": 9.9368373,
        "long": 123.9469641,
        "street_name": "Southridge"
    },
    {
        "id": 977,
        "address": "366 Lotheville Junction",
        "pin_code": "82818",
        "lat": -8.7820436,
        "long": 120.4155972,
        "street_name": "Kipling"
    },
    {
        "id": 973,
        "address": "1457 Corscot Hill",
        "pin_code": "83",
        "lat": 33.323763,
        "long": 117.906025,
        "street_name": "Buhler"
    },
    {
        "id": 367,
        "address": "699 Grim Drive",
        "pin_code": "8303",
        "lat": 47.3168226,
        "long": 47.3786779,
        "street_name": "Stang"
    },
    {
        "id": 274,
        "address": "818 Glacier Hill Plaza",
        "pin_code": "8312",
        "lat": 45.4067515,
        "long": 20.6262629,
        "street_name": "Del Sol"
    },
    {
        "id": 610,
        "address": "20212 Westend Terrace",
        "pin_code": "8314",
        "lat": 40.634244,
        "long": 108.893327,
        "street_name": "Iowa"
    },
    {
        "id": 149,
        "address": "84 Merry Hill",
        "pin_code": "83230",
        "lat": -12.5183628,
        "long": -39.0085346,
        "street_name": "Arizona"
    },
    {
        "id": 864,
        "address": "2726 Morrow Pass",
        "pin_code": "833",
        "lat": 57.5334964,
        "long": 15.9897014,
        "street_name": "Harbort"
    },
    {
        "id": 288,
        "address": "161 Schiller Place",
        "pin_code": "8359",
        "lat": 41.6613587,
        "long": -91.4918235,
        "street_name": "Thompson"
    },
    {
        "id": 603,
        "address": "183 Menomonie Court",
        "pin_code": "837",
        "lat": 30.169665,
        "long": 121.266579,
        "street_name": "Spaight"
    },
    {
        "id": 4,
        "address": "8 Moland Street",
        "pin_code": "838",
        "lat": 7.7019624,
        "long": 124.7496736,
        "street_name": "Harper"
    },
    {
        "id": 527,
        "address": "103 Prairieview Plaza",
        "pin_code": "83999",
        "lat": -21.4382195,
        "long": -65.7193442,
        "street_name": "Moland"
    },
    {
        "id": 421,
        "address": "42760 Basil Way",
        "pin_code": "84",
        "lat": -19.3107686,
        "long": -46.0489795,
        "street_name": "Pepper Wood"
    },
    {
        "id": 468,
        "address": "74 Vernon Pass",
        "pin_code": "8416",
        "lat": -14.6554285,
        "long": 28.0888578,
        "street_name": "Moulton"
    },
    {
        "id": 31,
        "address": "44 Shasta Way",
        "pin_code": "84377",
        "lat": 43.0174717,
        "long": 60.011507,
        "street_name": "Randy"
    },
    {
        "id": 524,
        "address": "2 2nd Crossing",
        "pin_code": "85",
        "lat": 8.573,
        "long": 124.474,
        "street_name": "Fisk"
    },
    {
        "id": 768,
        "address": "8 Steensland Junction",
        "pin_code": "85",
        "lat": 50.7036309,
        "long": 18.995304,
        "street_name": "Lukken"
    },
    {
        "id": 799,
        "address": "717 Darwin Avenue",
        "pin_code": "85130",
        "lat": 61.337971,
        "long": 40.081276,
        "street_name": "Dovetail"
    },
    {
        "id": 802,
        "address": "6976 Surrey Terrace",
        "pin_code": "8536",
        "lat": -14.226324,
        "long": -46.4393054,
        "street_name": "Glacier Hill"
    },
    {
        "id": 655,
        "address": "0 Erie Pass",
        "pin_code": "854",
        "lat": 43.262695,
        "long": 45.6506664,
        "street_name": "Florence"
    },
    {
        "id": 54,
        "address": "89 Russell Road",
        "pin_code": "85702",
        "lat": 22.37314,
        "long": 112.399452,
        "street_name": "Debra"
    },
    {
        "id": 850,
        "address": "203 Darwin Plaza",
        "pin_code": "85728",
        "lat": 48.6429165,
        "long": 124.5597559,
        "street_name": "Kim"
    },
    {
        "id": 806,
        "address": "524 Bellgrove Park",
        "pin_code": "85880",
        "lat": 7.0427956,
        "long": -73.1054544,
        "street_name": "Sheridan"
    },
    {
        "id": 551,
        "address": "1 Fulton Plaza",
        "pin_code": "86",
        "lat": 35.3170344,
        "long": 70.8744255,
        "street_name": "West"
    },
    {
        "id": 116,
        "address": "2 Westerfield Lane",
        "pin_code": "86485",
        "lat": 18.4355719,
        "long": -69.9506496,
        "street_name": "Fulton"
    },
    {
        "id": 321,
        "address": "50 Warrior Way",
        "pin_code": "8671",
        "lat": 10.9318486,
        "long": 124.0280263,
        "street_name": "Kings"
    },
    {
        "id": 877,
        "address": "111 Doe Crossing Way",
        "pin_code": "8678",
        "lat": -10.8163426,
        "long": 123.0057261,
        "street_name": "Lakewood Gardens"
    },
    {
        "id": 98,
        "address": "2 Butternut Road",
        "pin_code": "87",
        "lat": 36.1398393,
        "long": 128.1135947,
        "street_name": "Dryden"
    },
    {
        "id": 105,
        "address": "66 Mariners Cove Place",
        "pin_code": "87",
        "lat": 53.800245,
        "long": -1.48003,
        "street_name": "Scott"
    },
    {
        "id": 658,
        "address": "1 Raven Center",
        "pin_code": "87",
        "lat": 18.2929119,
        "long": -77.5418791,
        "street_name": "Anderson"
    },
    {
        "id": 750,
        "address": "2691 Cody Center",
        "pin_code": "87",
        "lat": 32.035776,
        "long": 35.038365,
        "street_name": "Hintze"
    },
    {
        "id": 998,
        "address": "732 Coleman Court",
        "pin_code": "87",
        "lat": 27.738569,
        "long": 108.831887,
        "street_name": "Talisman"
    },
    {
        "id": 153,
        "address": "0 Lighthouse Bay Pass",
        "pin_code": "87014",
        "lat": 6.4610857,
        "long": -2.3172324,
        "street_name": "Caliangt"
    },
    {
        "id": 818,
        "address": "21 Talisman Point",
        "pin_code": "872",
        "lat": 55.5934626,
        "long": 37.1554477,
        "street_name": "Village"
    },
    {
        "id": 96,
        "address": "9271 Northview Terrace",
        "pin_code": "8741",
        "lat": 5.7265629,
        "long": -71.993941,
        "street_name": "Pleasure"
    },
    {
        "id": 410,
        "address": "87940 Butternut Place",
        "pin_code": "8744",
        "lat": 33.3437146,
        "long": 130.6838866,
        "street_name": "Union"
    },
    {
        "id": 499,
        "address": "13 Charing Cross Hill",
        "pin_code": "87594",
        "lat": 42.2342735,
        "long": 27.7702053,
        "street_name": "Granby"
    },
    {
        "id": 93,
        "address": "1536 Vermont Street",
        "pin_code": "8767",
        "lat": 14.6316265,
        "long": 102.7594847,
        "street_name": "3rd"
    },
    {
        "id": 466,
        "address": "1319 Alpine Avenue",
        "pin_code": "8773",
        "lat": 0,
        "long": 2.8125,
        "street_name": "1st"
    },
    {
        "id": 43,
        "address": "12605 Badeau Circle",
        "pin_code": "87924",
        "lat": -19.811431,
        "long": -174.3502613,
        "street_name": "Homewood"
    },
    {
        "id": 156,
        "address": "8076 Talmadge Park",
        "pin_code": "88",
        "lat": -7.76929,
        "long": 114.2241895,
        "street_name": "Union"
    },
    {
        "id": 736,
        "address": "762 Milwaukee Hill",
        "pin_code": "8835",
        "lat": -8.2439594,
        "long": 112.5125893,
        "street_name": "Blackbird"
    },
    {
        "id": 271,
        "address": "65379 Transport Lane",
        "pin_code": "885",
        "lat": 59.4226704,
        "long": 17.8334683,
        "street_name": "Sachtjen"
    },
    {
        "id": 40,
        "address": "853 Dorton Way",
        "pin_code": "88625",
        "lat": -7.606418,
        "long": 110.190865,
        "street_name": "Eliot"
    },
    {
        "id": 76,
        "address": "332 Wayridge Point",
        "pin_code": "88783",
        "lat": -6.9424923,
        "long": 111.5200007,
        "street_name": "Golden Leaf"
    },
    {
        "id": 694,
        "address": "3060 Hayes Alley",
        "pin_code": "88783",
        "lat": "6.36115",
        "long": "126.17778",
        "street_name": "Waywood"
    },
    {
        "id": 49,
        "address": "1 Grim Alley",
        "pin_code": "888",
        "lat": 34.0716318,
        "long": 134.3493568,
        "street_name": "Blackbird"
    },
    {
        "id": 969,
        "address": "1 Briar Crest Trail",
        "pin_code": "89",
        "lat": 34.1812801,
        "long": 73.0929422,
        "street_name": "Dexter"
    },
    {
        "id": 896,
        "address": "75 Loomis Center",
        "pin_code": "891",
        "lat": 51.5320956,
        "long": 17.9737831,
        "street_name": "Kim"
    },
    {
        "id": 667,
        "address": "1 Sycamore Park",
        "pin_code": "895",
        "lat": 14.6628087,
        "long": -87.7787929,
        "street_name": "Lyons"
    },
    {
        "id": 920,
        "address": "72071 Pine View Park",
        "pin_code": "897",
        "lat": 45.478943,
        "long": 42.1414011,
        "street_name": "Nobel"
    },
    {
        "id": 880,
        "address": "6 Fallview Court",
        "pin_code": "8977",
        "lat": 13.3023013,
        "long": 123.6374208,
        "street_name": "Memorial"
    },
    {
        "id": 269,
        "address": "504 Cordelia Alley",
        "pin_code": "898",
        "lat": 52.3518344,
        "long": 71.8852785,
        "street_name": "Nelson"
    },
    {
        "id": 689,
        "address": "5772 Hoffman Drive",
        "pin_code": "89879",
        "lat": 33.9596334,
        "long": -118.3286614,
        "street_name": "Bultman"
    },
    {
        "id": 362,
        "address": "93321 Dovetail Way",
        "pin_code": "8989",
        "lat": 32.0467278,
        "long": 118.7864923,
        "street_name": "Heffernan"
    },
    {
        "id": 15,
        "address": "13 Myrtle Center",
        "pin_code": "9",
        "lat": 48.3245206,
        "long": 35.9379288,
        "street_name": "Dahle"
    },
    {
        "id": 124,
        "address": "9 Spohn Parkway",
        "pin_code": "9",
        "lat": 7.48688,
        "long": -74.8672519,
        "street_name": "Rigney"
    },
    {
        "id": 155,
        "address": "7776 North Road",
        "pin_code": "9",
        "lat": 23.788392,
        "long": 114.74638,
        "street_name": "Acker"
    },
    {
        "id": 199,
        "address": "9395 Derek Avenue",
        "pin_code": "9",
        "lat": 54.9086072,
        "long": 82.9751504,
        "street_name": "Schlimgen"
    },
    {
        "id": 254,
        "address": "743 Sundown Trail",
        "pin_code": "9",
        "lat": 54.6192996,
        "long": 39.8560057,
        "street_name": "Roxbury"
    },
    {
        "id": 268,
        "address": "1 Prairieview Center",
        "pin_code": "9",
        "lat": 29.561775,
        "long": 106.568971,
        "street_name": "Oakridge"
    },
    {
        "id": 328,
        "address": "871 Nova Alley",
        "pin_code": "9",
        "lat": 10.2683199,
        "long": -68.0179418,
        "street_name": "Hansons"
    },
    {
        "id": 354,
        "address": "1631 Pennsylvania Road",
        "pin_code": "9",
        "lat": 44.6939722,
        "long": 18.9959549,
        "street_name": "Tomscot"
    },
    {
        "id": 382,
        "address": "764 School Circle",
        "pin_code": "9",
        "lat": 4.141254,
        "long": 117.6485192,
        "street_name": "Declaration"
    },
    {
        "id": 402,
        "address": "11 Daystar Pass",
        "pin_code": "9",
        "lat": -7.55,
        "long": 111.283333,
        "street_name": "Coleman"
    },
    {
        "id": 418,
        "address": "95271 Lotheville Street",
        "pin_code": "9",
        "lat": "-26.68532",
        "long": "-60.7292",
        "street_name": "Evergreen"
    },
    {
        "id": 434,
        "address": "430 Welch Avenue",
        "pin_code": "9",
        "lat": -6.7299868,
        "long": 107.359399,
        "street_name": "Welch"
    },
    {
        "id": 507,
        "address": "4048 Rusk Parkway",
        "pin_code": "9",
        "lat": 34.144801,
        "long": -118.2563169,
        "street_name": "Lakewood"
    },
    {
        "id": 510,
        "address": "46524 Lotheville Circle",
        "pin_code": "9",
        "lat": 48.6463593,
        "long": 1.8015218,
        "street_name": "Golden Leaf"
    },
    {
        "id": 517,
        "address": "9 Holy Cross Point",
        "pin_code": "9",
        "lat": -34.6893026,
        "long": -58.5247124,
        "street_name": "Parkside"
    },
    {
        "id": 548,
        "address": "689 Donald Alley",
        "pin_code": "9",
        "lat": 22.920341,
        "long": 115.789204,
        "street_name": "Michigan"
    },
    {
        "id": 598,
        "address": "08033 Reinke Point",
        "pin_code": "9",
        "lat": 6.772879,
        "long": -74.796476,
        "street_name": "Memorial"
    },
    {
        "id": 621,
        "address": "742 Crescent Oaks Road",
        "pin_code": "9",
        "lat": 41.8038684,
        "long": 140.7289269,
        "street_name": "Mallard"
    },
    {
        "id": 696,
        "address": "81041 Kings Place",
        "pin_code": "9",
        "lat": -6.8497713,
        "long": 108.64553,
        "street_name": "La Follette"
    },
    {
        "id": 727,
        "address": "91587 Crescent Oaks Drive",
        "pin_code": "9",
        "lat": 29.2964866,
        "long": 48.079379,
        "street_name": "Paget"
    },
    {
        "id": 749,
        "address": "53858 Sycamore Park",
        "pin_code": "9",
        "lat": 16.0213558,
        "long": 100.417181,
        "street_name": "Montana"
    },
    {
        "id": 828,
        "address": "63 Sachtjen Park",
        "pin_code": "9",
        "lat": 25.587519,
        "long": 112.36902,
        "street_name": "Leroy"
    },
    {
        "id": 895,
        "address": "9392 Continental Hill",
        "pin_code": "900",
        "lat": 32.060255,
        "long": 118.796877,
        "street_name": "Spaight"
    },
    {
        "id": 837,
        "address": "45010 Rockefeller Trail",
        "pin_code": "901",
        "lat": 56.2056772,
        "long": 12.5535623,
        "street_name": "Birchwood"
    },
    {
        "id": 14,
        "address": "7184 Westridge Point",
        "pin_code": "9016",
        "lat": 53.9045398,
        "long": 27.5615244,
        "street_name": "Pine View"
    },
    {
        "id": 430,
        "address": "93 Becker Junction",
        "pin_code": "9035",
        "lat": 37.399373,
        "long": 110.691139,
        "street_name": "Sunfield"
    },
    {
        "id": 781,
        "address": "981 Hoard Crossing",
        "pin_code": "90608",
        "lat": -6.6487025,
        "long": 111.001332,
        "street_name": "Knutson"
    },
    {
        "id": 743,
        "address": "065 Muir Center",
        "pin_code": "9076",
        "lat": 28.133231,
        "long": 106.825301,
        "street_name": "Service"
    },
    {
        "id": 491,
        "address": "21 Esker Center",
        "pin_code": "9105",
        "lat": 23.1186718,
        "long": 113.3848198,
        "street_name": "Erie"
    },
    {
        "id": 80,
        "address": "87352 Cambridge Center",
        "pin_code": "91113",
        "lat": -7.4977546,
        "long": 108.6351043,
        "street_name": "Katie"
    },
    {
        "id": 586,
        "address": "62267 Tony Junction",
        "pin_code": "91497",
        "lat": 59.7414102,
        "long": 10.2299413,
        "street_name": "Springs"
    },
    {
        "id": 413,
        "address": "86805 Basil Parkway",
        "pin_code": "9188",
        "lat": 42.0480121,
        "long": -8.3359459,
        "street_name": "Cardinal"
    },
    {
        "id": 140,
        "address": "127 Holmberg Trail",
        "pin_code": "92",
        "lat": 7.5273576,
        "long": 125.6239227,
        "street_name": "Farmco"
    },
    {
        "id": 649,
        "address": "35 Red Cloud Drive",
        "pin_code": "92",
        "lat": 30.9127987,
        "long": 121.9104961,
        "street_name": "La Follette"
    },
    {
        "id": 885,
        "address": "4 Mallard Crossing",
        "pin_code": "92",
        "lat": 26.665617,
        "long": 119.547932,
        "street_name": "Declaration"
    },
    {
        "id": 489,
        "address": "2225 Tony Trail",
        "pin_code": "9203",
        "lat": 13.657613,
        "long": 100.3976471,
        "street_name": "Iowa"
    },
    {
        "id": 230,
        "address": "3 Becker Drive",
        "pin_code": "921",
        "lat": 48.3909721,
        "long": -4.4854059,
        "street_name": "Rockefeller"
    },
    {
        "id": 697,
        "address": "079 Oak Way",
        "pin_code": "9242",
        "lat": 24.5167005,
        "long": 44.4181786,
        "street_name": "Gulseth"
    },
    {
        "id": 196,
        "address": "08 Macpherson Pass",
        "pin_code": "925",
        "lat": 38.0772641,
        "long": 22.6326975,
        "street_name": "Walton"
    },
    {
        "id": 919,
        "address": "88303 Schurz Way",
        "pin_code": "9281",
        "lat": 53.6040518,
        "long": 24.741899,
        "street_name": "Dexter"
    },
    {
        "id": 577,
        "address": "1955 Dryden Drive",
        "pin_code": "9288",
        "lat": 53.2544872,
        "long": 14.4927021,
        "street_name": "Bay"
    },
    {
        "id": 664,
        "address": "31 Milwaukee Alley",
        "pin_code": "92990",
        "lat": 39.2256483,
        "long": -9.0073673,
        "street_name": "Esker"
    },
    {
        "id": 964,
        "address": "3 Oakridge Crossing",
        "pin_code": "93",
        "lat": 6.9304836,
        "long": 124.8918574,
        "street_name": "Hoard"
    },
    {
        "id": 513,
        "address": "4 Carberry Park",
        "pin_code": "93424",
        "lat": 39.3041754,
        "long": -9.1967347,
        "street_name": "Chive"
    },
    {
        "id": 766,
        "address": "53385 Spohn Hill",
        "pin_code": "935",
        "lat": 40.3643523,
        "long": 70.8001028,
        "street_name": "Londonderry"
    },
    {
        "id": 898,
        "address": "4175 Golf Course Junction",
        "pin_code": "9354",
        "lat": 31.700896,
        "long": 35.9510312,
        "street_name": "Muir"
    },
    {
        "id": 731,
        "address": "68 Westerfield Lane",
        "pin_code": "936",
        "lat": 22.543096,
        "long": 114.057865,
        "street_name": "Arapahoe"
    },
    {
        "id": 1,
        "address": "5 Messerschmidt Parkway",
        "pin_code": "938",
        "lat": 19.6616066,
        "long": -71.8363794,
        "street_name": "Armistice"
    },
    {
        "id": 866,
        "address": "554 3rd Court",
        "pin_code": "9380",
        "lat": 49.4991381,
        "long": -119.5937077,
        "street_name": "Thompson"
    },
    {
        "id": 719,
        "address": "5619 Pepper Wood Street",
        "pin_code": "9383",
        "lat": 37.365238,
        "long": 120.44763,
        "street_name": "Chinook"
    },
    {
        "id": 809,
        "address": "1847 Magdeline Crossing",
        "pin_code": "9389",
        "lat": 49.6439444,
        "long": 30.7841246,
        "street_name": "Eagle Crest"
    },
    {
        "id": 433,
        "address": "04 Brown Alley",
        "pin_code": "94",
        "lat": 33.253142,
        "long": 112.64751,
        "street_name": "Roxbury"
    },
    {
        "id": 541,
        "address": "52 Loftsgordon Plaza",
        "pin_code": "94",
        "lat": 38.3179046,
        "long": 116.8578425,
        "street_name": "Cottonwood"
    },
    {
        "id": 560,
        "address": "07 Havey Parkway",
        "pin_code": "94",
        "lat": 14.335889,
        "long": -89.713497,
        "street_name": "Cascade"
    },
    {
        "id": 374,
        "address": "67 Stang Court",
        "pin_code": "940",
        "lat": 38.5633826,
        "long": -8.8830265,
        "street_name": "3rd"
    },
    {
        "id": 166,
        "address": "202 Everett Street",
        "pin_code": "9435",
        "lat": "34.38528",
        "long": "36.03111",
        "street_name": "Sullivan"
    },
    {
        "id": 238,
        "address": "42 Melody Lane",
        "pin_code": "946",
        "lat": 43.4945737,
        "long": 5.8978018,
        "street_name": "Grover"
    },
    {
        "id": 223,
        "address": "0 Dunning Point",
        "pin_code": "95",
        "lat": 54.10269,
        "long": -6.64937,
        "street_name": "Lyons"
    },
    {
        "id": 178,
        "address": "3538 Sachs Trail",
        "pin_code": "951",
        "lat": 37.0734616,
        "long": -8.7751983,
        "street_name": "Moulton"
    },
    {
        "id": 497,
        "address": "80394 Carpenter Drive",
        "pin_code": "95374",
        "lat": 22.6166667,
        "long": 114.6702778,
        "street_name": "Eagan"
    },
    {
        "id": 665,
        "address": "4380 Lighthouse Bay Crossing",
        "pin_code": "9544",
        "lat": 50.3539899,
        "long": 19.4629659,
        "street_name": "Johnson"
    },
    {
        "id": 945,
        "address": "3001 Delaware Point",
        "pin_code": "955",
        "lat": 32.7423216,
        "long": 131.178836,
        "street_name": "Northridge"
    },
    {
        "id": 60,
        "address": "692 Del Sol Way",
        "pin_code": "95530",
        "lat": 50.2553167,
        "long": 15.7601242,
        "street_name": "Schmedeman"
    },
    {
        "id": 888,
        "address": "0323 Northport Park",
        "pin_code": "956",
        "lat": -1.5200027,
        "long": 102.9435536,
        "street_name": "Oak"
    },
    {
        "id": 258,
        "address": "2453 Park Meadow Lane",
        "pin_code": "959",
        "lat": -43.7567555,
        "long": 172.0223196,
        "street_name": "Mariners Cove"
    },
    {
        "id": 39,
        "address": "4610 Hintze Terrace",
        "pin_code": "96",
        "lat": 45.8860486,
        "long": 20.194172,
        "street_name": "Clemons"
    },
    {
        "id": 306,
        "address": "6 Schmedeman Point",
        "pin_code": "96",
        "lat": 45.8299686,
        "long": -64.2092372,
        "street_name": "Hollow Ridge"
    },
    {
        "id": 533,
        "address": "23 Fairfield Park",
        "pin_code": "96",
        "lat": 32.556936,
        "long": 120.681655,
        "street_name": "Donald"
    },
    {
        "id": 844,
        "address": "4 Prairie Rose Place",
        "pin_code": "96",
        "lat": 44.166512,
        "long": 79.999974,
        "street_name": "Fieldstone"
    },
    {
        "id": 222,
        "address": "5174 Delladonna Way",
        "pin_code": "9600",
        "lat": 10.1980682,
        "long": 105.9464874,
        "street_name": "Mosinee"
    },
    {
        "id": 929,
        "address": "2 Roxbury Way",
        "pin_code": "9610",
        "lat": 47.2457073,
        "long": -122.4773432,
        "street_name": "Lindbergh"
    },
    {
        "id": 911,
        "address": "1581 Dexter Hill",
        "pin_code": "96146",
        "lat": 40.561598,
        "long": 22.1857013,
        "street_name": "Bayside"
    },
    {
        "id": 118,
        "address": "3 Fair Oaks Parkway",
        "pin_code": "967",
        "lat": 28.125406,
        "long": 120.251605,
        "street_name": "Corben"
    },
    {
        "id": 518,
        "address": "49060 Dayton Parkway",
        "pin_code": "96705",
        "lat": -6.1869527,
        "long": 106.1698563,
        "street_name": "Reinke"
    },
    {
        "id": 275,
        "address": "5962 Superior Alley",
        "pin_code": "97",
        "lat": 43.1795227,
        "long": 45.4045219,
        "street_name": "Hoard"
    },
    {
        "id": 619,
        "address": "2 Sunbrook Alley",
        "pin_code": "97",
        "lat": 0.3144046,
        "long": 32.9888319,
        "street_name": "Ludington"
    },
    {
        "id": 625,
        "address": "214 Killdeer Avenue",
        "pin_code": "97",
        "lat": 13.470554,
        "long": 14.707735,
        "street_name": "Jackson"
    },
    {
        "id": 520,
        "address": "728 Quincy Drive",
        "pin_code": "9712",
        "lat": 4.4495458,
        "long": 11.9062829,
        "street_name": "Portage"
    },
    {
        "id": 970,
        "address": "1 Dottie Park",
        "pin_code": "972",
        "lat": 18.9753413,
        "long": -97.9041394,
        "street_name": "Express"
    },
    {
        "id": 737,
        "address": "3386 Caliangt Road",
        "pin_code": "97314",
        "lat": 38.5795991,
        "long": -8.9474304,
        "street_name": "Monument"
    },
    {
        "id": 663,
        "address": "36830 Texas Crossing",
        "pin_code": "97365",
        "lat": -5.8406158,
        "long": -35.9369952,
        "street_name": "Graedel"
    },
    {
        "id": 242,
        "address": "86 Westerfield Point",
        "pin_code": "98",
        "lat": "-9.4116",
        "long": "119.3532",
        "street_name": "Vernon"
    },
    {
        "id": 871,
        "address": "5 Independence Lane",
        "pin_code": "98",
        "lat": 18.9133079,
        "long": 72.8228652,
        "street_name": "Warbler"
    },
    {
        "id": 75,
        "address": "882 Bellgrove Way",
        "pin_code": "986",
        "lat": 50.3955793,
        "long": 18.6346378,
        "street_name": "Stuart"
    },
    {
        "id": 244,
        "address": "998 Oakridge Alley",
        "pin_code": "9884",
        "lat": -8.1370235,
        "long": 112.0148478,
        "street_name": "Sunnyside"
    },
    {
        "id": 676,
        "address": "8 Bluestem Street",
        "pin_code": "9891",
        "lat": 4.566637,
        "long": -75.75012,
        "street_name": "Veith"
    },
    {
        "id": 475,
        "address": "71 Grim Circle",
        "pin_code": "99",
        "lat": 14.5625862,
        "long": 121.0311185,
        "street_name": "Lien"
    },
    {
        "id": 824,
        "address": "60 Morningstar Hill",
        "pin_code": "99083",
        "lat": 36.57863,
        "long": 114.114634,
        "street_name": "Knutson"
    },
    {
        "id": 841,
        "address": "802 Dakota Crossing",
        "pin_code": "9917",
        "lat": 31.492565,
        "long": 113.079333,
        "street_name": "Kedzie"
    },
    {
        "id": 226,
        "address": "63267 Parkside Junction",
        "pin_code": "992",
        "lat": 37.4547684,
        "long": 140.5368503,
        "street_name": "La Follette"
    },
    {
        "id": 796,
        "address": "9 Ramsey Trail",
        "pin_code": "9928",
        "lat": 24.326292,
        "long": 109.428608,
        "street_name": "Jenifer"
    },
    {
        "id": 440,
        "address": "5971 Fremont Circle",
        "pin_code": "993",
        "lat": 27.318852,
        "long": 115.444319,
        "street_name": "Laurel"
    },
    {
        "id": 570,
        "address": "4 Cardinal Place",
        "pin_code": "99372",
        "lat": 29.866917,
        "long": 118.403786,
        "street_name": "Texas"
    },
    {
        "id": 52,
        "address": "1 Grover Terrace",
        "pin_code": "9942",
        "lat": 39.7537438,
        "long": 46.7464755,
        "street_name": "Muir"
    },
    {
        "id": 902,
        "address": "6838 Independence Way",
        "pin_code": "996",
        "lat": -6.8482297,
        "long": 106.6802549,
        "street_name": "Veith"
    },
    {
        "id": 251,
        "address": "321 Moulton Hill",
        "pin_code": "99707",
        "lat": 54.7598905,
        "long": -1.3347302,
        "street_name": "Oak"
    },
    {
        "id": 852,
        "address": "4 Hayes Lane",
        "pin_code": "99946",
        "lat": -9.3988444,
        "long": -40.4996855,
        "street_name": "Fisk"
    }
]